genericName,cloudConnectorName,cloudConnectorObject,source,users,rows,columns,matlabInterfaceObject,redisAddress,redisAddressString,redisHash,redisPersistence,redisTimeoutSeconds,redisTopic,filesystemPersistence,filesystemLocation,modbusSlaveId,modbusAddress,modbusBit,modbusConversionFunction,datatype,cloudConnectorDataType,modbusDefaultValue,lowerLimit,upperLimit,defaultValue,otMessageId,otMessageBit,otMessageByte,normalLogging,debugLogging,lteLogging,inLocalFeed,significantDigitsCloudConnector,Description
HP1 set main working mode,setMainWorkingMode,hp1,cic-controller,cic-modbus,1,1,interface_heatpump_1,100,,,FALSE,,,FALSE,,1,3999,,,uint16,,0,0,7,0,,,,TRUE,TRUE,,,,
HP1 set compressor frequency,setCompressorFrequencyLevel,hp1,cic-controller,cic-modbus,1,1,interface_heatpump_1,101,,,FALSE,,,FALSE,,1,1999,,,uint16,,0,0,10,0,,,,TRUE,TRUE,,,,
HP1 set low noise mode,setLowNoiseMode,hp1,,,1,1,,102,,,FALSE,,,FALSE,,1,2006,0,,uint16,,,0,1,,,,,FALSE,FALSE,,,,
HP1 set circulating pump relay,setCirculatingPumpRelay,hp1,cic-controller,cic-modbus,1,1,interface_heatpump_1,103,,,FALSE,,,FALSE,,1,2010,12,,uint16,,1,0,1,1,,,,TRUE,TRUE,,,,
HP1 set circulating pump duty cycle,setCirculatingPumpDutyCycle,hp1,cic-controller,cic-modbus,1,1,interface_heatpump_1,104,,,FALSE,,,FALSE,,1,2015,,,uint16,,850,0,1000,850,,,,TRUE,TRUE,,,,
HP1 get main working mode,getMainWorkingMode,hp1,cic-modbus,cic-controller,1,1,interface_heatpump_1,120,,,FALSE,,,FALSE,,1,2099,,,uint16,,,0,7,,,,,FALSE,TRUE,,TRUE,,
HP1 AC input voltage,acInputVoltage,hp1,cic-modbus,cic-controller,1,1,interface_heatpump_1,121,,,FALSE,,,FALSE,,1,2100,,,double,,,0,300,,,,,FALSE,TRUE,,,,
HP1 AC input current,acInputCurrent,hp1,cic-modbus,cic-controller,1,1,interface_heatpump_1,122,,,FALSE,,,FALSE,,1,2101,,convert_amps,double,,,0,50,,,,,TRUE,TRUE,,,,
HP1 compressor frequency max,compressorFrequencyMax,hp1,cic-modbus,cic-controller,1,1,interface_heatpump_1,123,,,FALSE,,,FALSE,,1,2102,,,double,,,0,120,,,,,FALSE,TRUE,,,,
HP1 compressor frequency,compressorFrequency,hp1,cic-modbus,cic-controller,1,1,interface_heatpump_1,124,,,FALSE,,,FALSE,,1,2103,,,double,,,0,120,,,,,TRUE,TRUE,,,,
HP1 fan speed max,getFanSpeedMax,hp1,cic-modbus,cic-controller,1,1,interface_heatpump_1,125,,,FALSE,,,FALSE,,1,2104,,,double,,,0,2000,,,,,FALSE,TRUE,,,,
HP1 fan speed,getFanSpeed,hp1,cic-modbus,cic-controller,1,1,interface_heatpump_1,126,,,FALSE,,,FALSE,,1,2105,,,double,,,0,2000,,,,,FALSE,TRUE,,,,
HP1 circulating pump relay,getCirculatingPumpRelay,hp1,cic-modbus,cic-controller,1,1,interface_heatpump_1,127,,,FALSE,,,FALSE,,1,2108,11,extract_bit,boolean,,,0,1,,,,,FALSE,TRUE,,,,
HP1 outdoor ambient temperature,temperatureOutside,hp1,cic-modbus,cic-controller,1,1,interface_heatpump_1,128,,,FALSE,,,FALSE,,1,2110,,convert_temp,double,,,-30,100,,,,,TRUE,TRUE,,TRUE,,
HP1 evaporator coil temp,evaporatorCoilTemperature,hp1,cic-modbus,cic-controller,1,1,interface_heatpump_1,129,,,FALSE,,,FALSE,,1,2111,,convert_temp,double,,,-30,100,,,,,FALSE,TRUE,,,,
HP1 gas discharge temp,gasDischargeTemperature,hp1,cic-modbus,cic-controller,1,1,interface_heatpump_1,130,,,FALSE,,,FALSE,,1,2112,,convert_temp,double,,,-30,100,,,,,FALSE,TRUE,,,,
HP1 unit address 0,,hp1,cic-modbus,,1,1,,131,,,FALSE,,,FALSE,,1,2115,0,extract_bit,boolean,,,0,1,,,,,FALSE,FALSE,,,,
HP1 unit address 1,,hp1,cic-modbus,,1,1,,132,,,FALSE,,,FALSE,,1,2115,1,extract_bit,boolean,,,0,1,,,,,FALSE,FALSE,,,,
HP1 unit address 2,,hp1,cic-modbus,,1,1,,133,,,FALSE,,,FALSE,,1,2115,2,extract_bit,boolean,,,0,1,,,,,FALSE,FALSE,,,,
HP1 unit address 3,,hp1,cic-modbus,,1,1,,134,,,FALSE,,,FALSE,,1,2115,3,extract_bit,boolean,,,0,1,,,,,FALSE,FALSE,,,,
HP1 low pressure switch,lowPressureSwitch,hp1,cic-modbus,,1,1,,135,,,FALSE,,,FALSE,,1,2115,11,extract_bit,boolean,,,0,1,,,,,FALSE,TRUE,,,,
HP1 high pressure switch,highPressureSwitch,hp1,cic-modbus,,1,1,,136,,,FALSE,,,FALSE,,1,2115,12,extract_bit,boolean,,,0,1,,,,,FALSE,TRUE,,,,
HP1 water flow switch,waterFlowSwitch,hp1,cic-modbus,,1,1,,137,,,FALSE,,,FALSE,,1,2115,13,extract_bit,boolean,,,0,1,,,,,FALSE,TRUE,,,,
HP1 evaporator pressure,evaporatorPressure,hp1,cic-modbus,cic-controller,1,1,interface_heatpump_1,138,,,FALSE,,,FALSE,,1,2116,,,double,,,0,60,,,,,FALSE,TRUE,,,,
HP1 condenser pressure,condenserPressure,hp1,cic-modbus,cic-controller,1,1,interface_heatpump_1,139,,,FALSE,,,FALSE,,1,2117,,,double,,,0,60,,,,,FALSE,TRUE,,,,
HP1 defrost flag,defrostFlag,hp1,cic-modbus,cic-controller,1,1,interface_heatpump_1,140,,,FALSE,,,FALSE,,1,2118,,,boolean,,,0,1,,,,,TRUE,TRUE,,,,
HP1 main line current protection,mainLineCurrentProtection,hp1,cic-modbus,,1,1,,141,,,FALSE,,,FALSE,,1,2119,0,extract_bit,boolean,,,0,1,,,,,FALSE,TRUE,,,,
HP1 compressor phase current protection,compressorPhaseCurrentProtection,hp1,cic-modbus,,1,1,,142,,,FALSE,,,FALSE,,1,2119,1,extract_bit,boolean,,,0,1,,,,,FALSE,TRUE,,,,
HP1 IPM module protection,ipmModuleProtection,hp1,cic-modbus,,1,1,,143,,,FALSE,,,FALSE,,1,2119,2,extract_bit,boolean,,,0,1,,,,,FALSE,TRUE,,,,
HP1 compressor oil return protection,compressorOilReturnProtection,hp1,cic-modbus,,1,1,,144,,,FALSE,,,FALSE,,1,2119,3,extract_bit,boolean,,,0,1,,,,,FALSE,TRUE,,,,
HP1 high pressure switch protection,highPressureSwitchProtection,hp1,cic-modbus,,1,1,,145,,,FALSE,,,FALSE,,1,2119,4,extract_bit,boolean,,,0,1,,,,,FALSE,TRUE,,,,
HP1 high pressure compressor speed down,highPressureCompressorSpeedDown,hp1,cic-modbus,,1,1,,146,,,FALSE,,,FALSE,,1,2119,5,extract_bit,boolean,,,0,1,,,,,FALSE,TRUE,,,,
HP1 first start pre heat protection,firstStartPreHeatProtection,hp1,cic-modbus,,1,1,,147,,,FALSE,,,FALSE,,1,2119,6,extract_bit,boolean,,,0,1,,,,,FALSE,TRUE,,,,
HP1 gas discharge temp sensor protection,gasDischargeTempSensorProtection,hp1,cic-modbus,,1,1,,148,,,FALSE,,,FALSE,,1,2119,7,extract_bit,boolean,,,0,1,,,,,FALSE,TRUE,,,,
HP1 evaporator coil temp sensor protection,evaporatorCoilTempSensorProtection,hp1,cic-modbus,,1,1,,149,,,FALSE,,,FALSE,,1,2119,8,extract_bit,boolean,,,0,1,,,,,FALSE,TRUE,,,,
HP1 AC voltage protection,acVoltageProtection,hp1,cic-modbus,,1,1,,150,,,FALSE,,,FALSE,,1,2119,9,extract_bit,boolean,,,0,1,,,,,FALSE,TRUE,,,,
HP1 failure ambient temperature,failureAmbientTemperature,hp1,cic-modbus,,1,1,,151,,,FALSE,,,FALSE,,1,2119,10,extract_bit,boolean,,,0,1,,,,,FALSE,TRUE,,,,
HP1 ambient temperature frequency limit protection,ambientTemperatureFrequencyLimitProtection,hp1,cic-modbus,,1,1,,152,,,FALSE,,,FALSE,,1,2119,11,extract_bit,boolean,,,0,1,,,,,FALSE,TRUE,,,,
HP1 low pressure switch protection,lowPressureSwitchProtection,hp1,cic-modbus,,1,1,,153,,,FALSE,,,FALSE,,1,2119,12,extract_bit,boolean,,,0,1,,,,,FALSE,TRUE,,,,
HP1 low pressure compressor speed down,lowPressureCompressorSpeedDown,hp1,cic-modbus,,1,1,,154,,,FALSE,,,FALSE,,1,2119,13,extract_bit,boolean,,,0,1,,,,,FALSE,TRUE,,,,
HP1 ambient temp sensor failure,ambientTempSensorFailure,hp1,cic-modbus,,1,1,,155,,,FALSE,,,FALSE,,1,2120,0,extract_bit,boolean,,,0,1,,,,,FALSE,TRUE,,,,
HP1 evaporator coil temp sensor failure,evaporatorCoilTempSensorFailure,hp1,cic-modbus,,1,1,,156,,,FALSE,,,FALSE,,1,2120,1,extract_bit,boolean,,,0,1,,,,,FALSE,TRUE,,,,
HP1 gas discharge temp sensor failure,gasDischargeTempSensorFailure,hp1,cic-modbus,,1,1,,157,,,FALSE,,,FALSE,,1,2120,2,extract_bit,boolean,,,0,1,,,,,FALSE,TRUE,,,,
HP1 gas return temp sensor failure,gasReturnTempSensorFailure,hp1,cic-modbus,,1,1,,158,,,FALSE,,,FALSE,,1,2120,3,extract_bit,boolean,,,0,1,,,,,FALSE,TRUE,,,,
HP1 evaporator pressure sensor failure,evaporatorPressureSensorFailure,hp1,cic-modbus,,1,1,,159,,,FALSE,,,FALSE,,1,2120,4,extract_bit,boolean,,,0,1,,,,,FALSE,TRUE,,,,
HP1 condenser pressure sensor failure,condenserPressureSensorFailure,hp1,cic-modbus,,1,1,,160,,,FALSE,,,FALSE,,1,2120,5,extract_bit,boolean,,,0,1,,,,,FALSE,TRUE,,,,
HP1 high pressure switch lock protection,highPressureSwitchLockProtection,hp1,cic-modbus,,1,1,,161,,,FALSE,,,FALSE,,1,2120,6,extract_bit,boolean,,,0,1,,,,,FALSE,TRUE,,,,
HP1 low pressure switch lock protection,lowPressureSwitchLockProtection,hp1,cic-modbus,,1,1,,162,,,FALSE,,,FALSE,,1,2120,7,extract_bit,boolean,,,0,1,,,,,FALSE,TRUE,,,,
HP1 fan failure,fanFailure,hp1,cic-modbus,cic-controller,1,1,interface_heatpump_1_failure,163,,,FALSE,,,FALSE,,1,2120,8,extract_bit,boolean,,,0,1,,,,,FALSE,TRUE,,,,
HP1 evaporating pressure lock protection,evaporatingPressureLockProtection,hp1,cic-modbus,cic-controller,1,1,interface_heatpump_1_failure,164,,,FALSE,,,FALSE,,1,2120,10,extract_bit,boolean,,,0,1,,,,,FALSE,TRUE,,,,
HP1 condenser pressure lock protection,condenserPressureLockProtection,hp1,cic-modbus,cic-controller,1,1,interface_heatpump_1_failure,165,,,FALSE,,,FALSE,,1,2120,11,extract_bit,boolean,,,0,1,,,,,FALSE,TRUE,,,,
HP1 EVI pressure sensor failure,eviPressureSensorFailure,hp1,cic-modbus,,1,1,,166,,,FALSE,,,FALSE,,1,2120,13,extract_bit,boolean,,,0,1,,,,,FALSE,TRUE,,,,
HP1 EVI inlet temp sensor failure,eviInletTempSensorFailure,hp1,cic-modbus,,1,1,,167,,,FALSE,,,FALSE,,1,2120,14,extract_bit,boolean,,,0,1,,,,,FALSE,TRUE,,,,
HP1 EVI outlet temp sensor failure,eviOutletTempSensorFailure,hp1,cic-modbus,,1,1,,168,,,FALSE,,,FALSE,,1,2120,15,extract_bit,boolean,,,0,1,,,,,FALSE,TRUE,,,,
HP1 master slave communication failure,masterSlaveCommunicationFailure,hp1,cic-modbus,,1,1,,169,,,FALSE,,,FALSE,,1,2121,0,extract_bit,boolean,,,0,1,,,,,FALSE,TRUE,,,,
HP1 control pcb module communication failure,controlPcbModuleCommunicationFailure,hp1,cic-modbus,,1,1,,170,,,FALSE,,,FALSE,,1,2121,1,extract_bit,boolean,,,0,1,,,,,FALSE,TRUE,,,,
HP1 compressor phase current failure,compressorPhaseCurrentFailure,hp1,cic-modbus,,1,1,,171,,,FALSE,,,FALSE,,1,2121,2,extract_bit,boolean,,,0,1,,,,,FALSE,TRUE,,,,
HP1 compressor phase current overload,compressorPhaseCurrentOverload,hp1,cic-modbus,,1,1,,172,,,FALSE,,,FALSE,,1,2121,3,extract_bit,boolean,,,0,1,,,,,FALSE,TRUE,,,,
HP1 compressor driver failure,compressorDriverFailure,hp1,cic-modbus,cic-controller,1,1,interface_heatpump_1_failure,173,,,FALSE,,,FALSE,,1,2121,4,extract_bit,boolean,,,0,1,,,,,FALSE,TRUE,,,,
HP1 module VDC voltage failure,moduleVDCVoltageFailure,hp1,cic-modbus,,1,1,,174,,,FALSE,,,FALSE,,1,2121,5,extract_bit,boolean,,,0,1,,,,,FALSE,TRUE,,,,
HP1 AC current failure,acCurrentFailure,hp1,cic-modbus,,1,1,,175,,,FALSE,,,FALSE,,1,2121,6,extract_bit,boolean,,,0,1,,,,,FALSE,TRUE,,,,
HP1 EEPROM failure,eepromFailure,hp1,cic-modbus,,1,1,,176,,,FALSE,,,FALSE,,1,2121,7,extract_bit,boolean,,,0,1,,,,,FALSE,TRUE,,,,
HP1 fan drive pcb failure,fanDrivePcbFailure,hp1,cic-modbus,,1,1,,177,,,FALSE,,,FALSE,,1,2121,8,extract_bit,boolean,,,0,1,,,,,FALSE,TRUE,,,,
HP1 inlet water temp sensor failure,inletWaterTempSensorFailure,hp1,cic-modbus,,1,1,,178,,,FALSE,,,FALSE,,1,2121,9,extract_bit,boolean,,,0,1,,,,,FALSE,TRUE,,,,
HP1 outlet water temp sensor failure,outletWaterTempSensorFailure,hp1,cic-modbus,,1,1,,179,,,FALSE,,,FALSE,,1,2121,10,extract_bit,boolean,,,0,1,,,,,FALSE,TRUE,,,,
HP1 inner coil temp sensor failure,innerCoilTempSensorFailure,hp1,cic-modbus,,1,1,,180,,,FALSE,,,FALSE,,1,2121,11,extract_bit,boolean,,,0,1,,,,,FALSE,TRUE,,,,
HP1 dc water pump failure,dcWaterPumpFailure,hp1,cic-modbus,,1,1,,181,,,FALSE,,,FALSE,,1,2121,13,extract_bit,boolean,,,0,1,,,,,FALSE,TRUE,,,,
HP1 condensing temperature,condensingTemperature,hp1,cic-modbus,cic-controller,1,1,interface_heatpump_1,182,,,FALSE,,,FALSE,,1,2131,,convert_temp,double,,,-30,100,,,,,FALSE,TRUE,,,,
HP1 evaporating temperature,evaporatingTemperature,hp1,cic-modbus,cic-controller,1,1,interface_heatpump_1,183,,,FALSE,,,FALSE,,1,2132,,convert_temp,double,,,-30,100,,,,,FALSE,TRUE,,,,
HP1 inlet water temperature,temperatureWaterIn,hp1,cic-modbus,cic-controller,1,1,interface_heatpump_1,184,,,FALSE,,,FALSE,,1,2133,,convert_temp,double,,,-30,100,,,,,TRUE,TRUE,,TRUE,,
HP1 outlet water temperature,temperatureWaterOut,hp1,cic-modbus,cic-controller,1,1,interface_heatpump_1,185,,,FALSE,,,FALSE,,1,2134,,convert_temp,double,,,-30,100,,,,,TRUE,TRUE,,TRUE,,
HP1 circulating pump duty cycle,circulatingPumpDutyCycle,hp1,cic-modbus,cic-controller,1,1,interface_heatpump_1,186,,,FALSE,,,FALSE,,1,2137,,convert_amps,double,,,0,1000,,,,,TRUE,TRUE,,,,
HP1 bottom plate heater enable,bottomPlateHeaterEnable,hp1,cic-modbus,cic-controller,1,1,interface_heatpump_1,187,,,FALSE,,,FALSE,,1,2108,2,extract_bit,boolean,,,0,1,,,,,TRUE,TRUE,,,,
HP1 compressor crankcase heater enable,compressorCrankcaseHeaterEnable,hp1,cic-modbus,cic-controller,1,1,interface_heatpump_1,188,,,FALSE,,,FALSE,,1,2108,3,extract_bit,boolean,,,0,1,,,,,TRUE,TRUE,,,,
HP1 PCB firmware version,pcbFirmwareVersion,hp1,cic-modbus,,1,1,,189,,,FALSE,,,FALSE,,1,2122,,firmware_ver,string,,,,,,,,,TRUE,TRUE,,,,
HP1 main control board item number,mainControlBoardItemNumber,hp1,cic-modbus,,1,1,,190,,,FALSE,,,FALSE,,1,2127,,,uint16,,,,,,,,,TRUE,TRUE,,,,
HP1 flow rate,flowRate,hp1,cic-modbus,cic-controller,1,1,interface_heatpump_1,191,,,FALSE,,,FALSE,,1,2138,,convert_flow,double,,,0,2000,,,,,FALSE,TRUE,,,,Unit=lit/hour
HP2 set main working mode,setMainWorkingMode,hp2,cic-controller,cic-modbus,1,1,interface_heatpump_2,200,,,FALSE,,,FALSE,,2,3999,,,uint16,,0,0,7,0,,,,TRUE,TRUE,,,,
HP2 set compressor frequency,setCompressorFrequencyLevel,hp2,cic-controller,cic-modbus,1,1,interface_heatpump_2,201,,,FALSE,,,FALSE,,2,1999,,,uint16,,0,0,10,0,,,,TRUE,TRUE,,,,
HP2 set low noise mode,setLowNoiseMode,hp2,,,1,1,,202,,,FALSE,,,FALSE,,2,2006,0,,uint16,,,0,1,,,,,FALSE,FALSE,,,,
HP2 set circulating pump relay,setCirculatingPumpRelay,hp2,cic-controller,cic-modbus,1,1,interface_heatpump_2,203,,,FALSE,,,FALSE,,2,2010,12,,uint16,,1,0,1,1,,,,TRUE,TRUE,,,,
HP2 set circulating pump duty cycle,setCirculatingPumpDutyCycle,hp2,cic-controller,cic-modbus,1,1,interface_heatpump_2,204,,,FALSE,,,FALSE,,2,2015,,,uint16,,850,0,1000,850,,,,TRUE,TRUE,,,,
HP2 get main working mode,getMainWorkingMode,hp2,cic-modbus,cic-controller,1,1,interface_heatpump_2,220,,,FALSE,,,FALSE,,2,2099,,,uint16,,,0,7,,,,,FALSE,TRUE,,TRUE,,
HP2 AC input voltage,acInputVoltage,hp2,cic-modbus,cic-controller,1,1,interface_heatpump_2,221,,,FALSE,,,FALSE,,2,2100,,,double,,,0,300,,,,,FALSE,TRUE,,,,
HP2 AC input current,acInputCurrent,hp2,cic-modbus,cic-controller,1,1,interface_heatpump_2,222,,,FALSE,,,FALSE,,2,2101,,convert_amps,double,,,0,50,,,,,TRUE,TRUE,,,,
HP2 compressor frequency max,compressorFrequencyMax,hp2,cic-modbus,cic-controller,1,1,interface_heatpump_2,223,,,FALSE,,,FALSE,,2,2102,,,double,,,0,120,,,,,FALSE,TRUE,,,,
HP2 compressor frequency,compressorFrequency,hp2,cic-modbus,cic-controller,1,1,interface_heatpump_2,224,,,FALSE,,,FALSE,,2,2103,,,double,,,0,120,,,,,TRUE,TRUE,,,,
HP2 fan speed max,getFanSpeedMax,hp2,cic-modbus,cic-controller,1,1,interface_heatpump_2,225,,,FALSE,,,FALSE,,2,2104,,,double,,,0,2000,,,,,FALSE,TRUE,,,,
HP2 fan speed,getFanSpeed,hp2,cic-modbus,cic-controller,1,1,interface_heatpump_2,226,,,FALSE,,,FALSE,,2,2105,,,double,,,0,2000,,,,,FALSE,TRUE,,,,
HP2 circulating pump relay,getCirculatingPumpRelay,hp2,cic-modbus,cic-controller,1,1,interface_heatpump_2,227,,,FALSE,,,FALSE,,2,2108,11,extract_bit,boolean,,,0,1,,,,,FALSE,TRUE,,,,
HP2 outdoor ambient temperature,temperatureOutside,hp2,cic-modbus,cic-controller,1,1,interface_heatpump_2,228,,,FALSE,,,FALSE,,2,2110,,convert_temp,double,,,-30,100,,,,,TRUE,TRUE,,TRUE,,
HP2 evaporator coil temp,evaporatorCoilTemperature,hp2,cic-modbus,cic-controller,1,1,interface_heatpump_2,229,,,FALSE,,,FALSE,,2,2111,,convert_temp,double,,,-30,100,,,,,FALSE,TRUE,,,,
HP2 gas discharge temp,gasDischargeTemperature,hp2,cic-modbus,cic-controller,1,1,interface_heatpump_2,230,,,FALSE,,,FALSE,,2,2112,,convert_temp,double,,,-30,100,,,,,FALSE,TRUE,,,,
HP2 unit address 0,,hp2,cic-modbus,,1,1,,231,,,FALSE,,,FALSE,,2,2115,0,extract_bit,boolean,,,0,1,,,,,FALSE,FALSE,,,,
HP2 unit address 1,,hp2,cic-modbus,,1,1,,232,,,FALSE,,,FALSE,,2,2115,1,extract_bit,boolean,,,0,1,,,,,FALSE,FALSE,,,,
HP2 unit address 2,,hp2,cic-modbus,,1,1,,233,,,FALSE,,,FALSE,,2,2115,2,extract_bit,boolean,,,0,1,,,,,FALSE,FALSE,,,,
HP2 unit address 3,,hp2,cic-modbus,,1,1,,234,,,FALSE,,,FALSE,,2,2115,3,extract_bit,boolean,,,0,1,,,,,FALSE,FALSE,,,,
HP2 low pressure switch,lowPressureSwitch,hp2,cic-modbus,,1,1,,235,,,FALSE,,,FALSE,,2,2115,11,extract_bit,boolean,,,0,1,,,,,FALSE,TRUE,,,,
HP2 high pressure switch,highPressureSwitch,hp2,cic-modbus,,1,1,,236,,,FALSE,,,FALSE,,2,2115,12,extract_bit,boolean,,,0,1,,,,,FALSE,TRUE,,,,
HP2 water flow switch,waterFlowSwitch,hp2,cic-modbus,,1,1,,237,,,FALSE,,,FALSE,,2,2115,13,extract_bit,boolean,,,0,1,,,,,FALSE,TRUE,,,,
HP2 evaporator pressure,evaporatorPressure,hp2,cic-modbus,cic-controller,1,1,interface_heatpump_2,238,,,FALSE,,,FALSE,,2,2116,,,double,,,0,60,,,,,FALSE,TRUE,,,,
HP2 condenser pressure,condenserPressure,hp2,cic-modbus,cic-controller,1,1,interface_heatpump_2,239,,,FALSE,,,FALSE,,2,2117,,,double,,,0,60,,,,,FALSE,TRUE,,,,
HP2 defrost flag,defrostFlag,hp2,cic-modbus,cic-controller,1,1,interface_heatpump_2,240,,,FALSE,,,FALSE,,2,2118,,,boolean,,,,,,,,,TRUE,TRUE,,,,
HP2 main line current protection,mainLineCurrentProtection,hp2,cic-modbus,,1,1,,241,,,FALSE,,,FALSE,,2,2119,0,extract_bit,boolean,,,0,1,,,,,FALSE,TRUE,,,,
HP2 compressor phase current protection,compressorPhaseCurrentProtection,hp2,cic-modbus,,1,1,,242,,,FALSE,,,FALSE,,2,2119,1,extract_bit,boolean,,,0,1,,,,,FALSE,TRUE,,,,
HP2 IPM module protection,ipmModuleProtection,hp2,cic-modbus,,1,1,,243,,,FALSE,,,FALSE,,2,2119,2,extract_bit,boolean,,,0,1,,,,,FALSE,TRUE,,,,
HP2 compressor oil return protection,compressorOilReturnProtection,hp2,cic-modbus,,1,1,,244,,,FALSE,,,FALSE,,2,2119,3,extract_bit,boolean,,,0,1,,,,,FALSE,TRUE,,,,
HP2 high pressure switch protection,highPressureSwitchProtection,hp2,cic-modbus,,1,1,,245,,,FALSE,,,FALSE,,2,2119,4,extract_bit,boolean,,,0,1,,,,,FALSE,TRUE,,,,
HP2 high pressure compressor speed down,highPressureCompressorSpeedDown,hp2,cic-modbus,,1,1,,246,,,FALSE,,,FALSE,,2,2119,5,extract_bit,boolean,,,0,1,,,,,FALSE,TRUE,,,,
HP2 first start pre heat protection,firstStartPreHeatProtection,hp2,cic-modbus,,1,1,,247,,,FALSE,,,FALSE,,2,2119,6,extract_bit,boolean,,,0,1,,,,,FALSE,TRUE,,,,
HP2 gas discharge temp sensor protection,gasDischargeTempSensorProtection,hp2,cic-modbus,,1,1,,248,,,FALSE,,,FALSE,,2,2119,7,extract_bit,boolean,,,0,1,,,,,FALSE,TRUE,,,,
HP2 evaporator coil temp sensor protection,evaporatorCoilTempSensorProtection,hp2,cic-modbus,,1,1,,249,,,FALSE,,,FALSE,,2,2119,8,extract_bit,boolean,,,0,1,,,,,FALSE,TRUE,,,,
HP2 AC voltage protection,acVoltageProtection,hp2,cic-modbus,,1,1,,250,,,FALSE,,,FALSE,,2,2119,9,extract_bit,boolean,,,0,1,,,,,FALSE,TRUE,,,,
HP2 failure ambient temperature,failureAmbientTemperature,hp2,cic-modbus,,1,1,,251,,,FALSE,,,FALSE,,2,2119,10,extract_bit,boolean,,,0,1,,,,,FALSE,TRUE,,,,
HP2 ambient temperature frequency limit protection,ambientTemperatureFrequencyLimitProtection,hp2,cic-modbus,,1,1,,252,,,FALSE,,,FALSE,,2,2119,11,extract_bit,boolean,,,0,1,,,,,FALSE,TRUE,,,,
HP2 low pressure switch protection,lowPressureSwitchProtection,hp2,cic-modbus,,1,1,,253,,,FALSE,,,FALSE,,2,2119,12,extract_bit,boolean,,,0,1,,,,,FALSE,TRUE,,,,
HP2 low pressure compressor speed down,lowPressureCompressorSpeedDown,hp2,cic-modbus,,1,1,,254,,,FALSE,,,FALSE,,2,2119,13,extract_bit,boolean,,,0,1,,,,,FALSE,TRUE,,,,
HP2 ambient temp sensor failure,ambientTempSensorFailure,hp2,cic-modbus,,1,1,,255,,,FALSE,,,FALSE,,2,2120,0,extract_bit,boolean,,,0,1,,,,,FALSE,TRUE,,,,
HP2 evaporator coil temp sensor failure,evaporatorCoilTempSensorFailure,hp2,cic-modbus,,1,1,,256,,,FALSE,,,FALSE,,2,2120,1,extract_bit,boolean,,,0,1,,,,,FALSE,TRUE,,,,
HP2 gas discharge temp sensor failure,gasDischargeTempSensorFailure,hp2,cic-modbus,,1,1,,257,,,FALSE,,,FALSE,,2,2120,2,extract_bit,boolean,,,0,1,,,,,FALSE,TRUE,,,,
HP2 gas return temp sensor failure,gasReturnTempSensorFailure,hp2,cic-modbus,,1,1,,258,,,FALSE,,,FALSE,,2,2120,3,extract_bit,boolean,,,0,1,,,,,FALSE,TRUE,,,,
HP2 evaporator pressure sensor failure,evaporatorPressureSensorFailure,hp2,cic-modbus,,1,1,,259,,,FALSE,,,FALSE,,2,2120,4,extract_bit,boolean,,,0,1,,,,,FALSE,TRUE,,,,
HP2 condenser pressure sensor failure,condenserPressureSensorFailure,hp2,cic-modbus,,1,1,,260,,,FALSE,,,FALSE,,2,2120,5,extract_bit,boolean,,,0,1,,,,,FALSE,TRUE,,,,
HP2 high pressure switch lock protection,highPressureSwitchLockProtection,hp2,cic-modbus,,1,1,,261,,,FALSE,,,FALSE,,2,2120,6,extract_bit,boolean,,,0,1,,,,,FALSE,TRUE,,,,
HP2 low pressure switch lock protection,lowPressureSwitchLockProtection,hp2,cic-modbus,,1,1,,262,,,FALSE,,,FALSE,,2,2120,7,extract_bit,boolean,,,0,1,,,,,FALSE,TRUE,,,,
HP2 fan failure,fanFailure,hp2,cic-modbus,cic-controller,1,1,interface_heatpump_2_failure,263,,,FALSE,,,FALSE,,2,2120,8,extract_bit,boolean,,,0,1,,,,,FALSE,TRUE,,,,
HP2 evaporating pressure lock protection,evaporatingPressureLockProtection,hp2,cic-modbus,cic-controller,1,1,interface_heatpump_2_failure,264,,,FALSE,,,FALSE,,2,2120,10,extract_bit,boolean,,,0,1,,,,,FALSE,TRUE,,,,
HP2 condenser pressure lock protection,condenserPressureLockProtection,hp2,cic-modbus,cic-controller,1,1,interface_heatpump_2_failure,265,,,FALSE,,,FALSE,,2,2120,11,extract_bit,boolean,,,0,1,,,,,FALSE,TRUE,,,,
HP2 EVI pressure sensor failure,eviPressureSensorFailure,hp2,cic-modbus,,1,1,,266,,,FALSE,,,FALSE,,2,2120,13,extract_bit,boolean,,,0,1,,,,,FALSE,TRUE,,,,
HP2 EVI inlet temp sensor failure,eviInletTempSensorFailure,hp2,cic-modbus,,1,1,,267,,,FALSE,,,FALSE,,2,2120,14,extract_bit,boolean,,,0,1,,,,,FALSE,TRUE,,,,
HP2 EVI outlet temp sensor failure,eviOutletTempSensorFailure,hp2,cic-modbus,,1,1,,268,,,FALSE,,,FALSE,,2,2120,15,extract_bit,boolean,,,0,1,,,,,FALSE,TRUE,,,,
HP2 master slave communication failure,masterSlaveCommunicationFailure,hp2,cic-modbus,,1,1,,269,,,FALSE,,,FALSE,,2,2121,0,extract_bit,boolean,,,0,1,,,,,FALSE,TRUE,,,,
HP2 control pcb module communication failure,controlPcbModuleCommunicationFailure,hp2,cic-modbus,,1,1,,270,,,FALSE,,,FALSE,,2,2121,1,extract_bit,boolean,,,0,1,,,,,FALSE,TRUE,,,,
HP2 compressor phase current failure,compressorPhaseCurrentFailure,hp2,cic-modbus,,1,1,,271,,,FALSE,,,FALSE,,2,2121,2,extract_bit,boolean,,,0,1,,,,,FALSE,TRUE,,,,
HP2 compressor phase current overload,compressorPhaseCurrentOverload,hp2,cic-modbus,,1,1,,272,,,FALSE,,,FALSE,,2,2121,3,extract_bit,boolean,,,0,1,,,,,FALSE,TRUE,,,,
HP2 compressor driver failure,compressorDriverFailure,hp2,cic-modbus,cic-controller,1,1,interface_heatpump_2_failure,273,,,FALSE,,,FALSE,,2,2121,4,extract_bit,boolean,,,0,1,,,,,FALSE,TRUE,,,,
HP2 module VDC voltage failure,moduleVDCVoltageFailure,hp2,cic-modbus,,1,1,,274,,,FALSE,,,FALSE,,2,2121,5,extract_bit,boolean,,,0,1,,,,,FALSE,TRUE,,,,
HP2 AC current failure,acCurrentFailure,hp2,cic-modbus,,1,1,,275,,,FALSE,,,FALSE,,2,2121,6,extract_bit,boolean,,,0,1,,,,,FALSE,TRUE,,,,
HP2 EEPROM failure,eepromFailure,hp2,cic-modbus,,1,1,,276,,,FALSE,,,FALSE,,2,2121,7,extract_bit,boolean,,,0,1,,,,,FALSE,TRUE,,,,
HP2 fan drive pcb failure,fanDrivePcbFailure,hp2,cic-modbus,,1,1,,277,,,FALSE,,,FALSE,,2,2121,8,extract_bit,boolean,,,0,1,,,,,FALSE,TRUE,,,,
HP2 inlet water temp sensor failure,inletWaterTempSensorFailure,hp2,cic-modbus,,1,1,,278,,,FALSE,,,FALSE,,2,2121,9,extract_bit,boolean,,,0,1,,,,,FALSE,TRUE,,,,
HP2 outlet water temp sensor failure,outletWaterTempSensorFailure,hp2,cic-modbus,,1,1,,279,,,FALSE,,,FALSE,,2,2121,10,extract_bit,boolean,,,0,1,,,,,FALSE,TRUE,,,,
HP2 inner coil temp sensor failure,innerCoilTempSensorFailure,hp2,cic-modbus,,1,1,,280,,,FALSE,,,FALSE,,2,2121,11,extract_bit,boolean,,,0,1,,,,,FALSE,TRUE,,,,
HP2 dc water pump failure,dcWaterPumpFailure,hp2,cic-modbus,,1,1,,281,,,FALSE,,,FALSE,,2,2121,13,extract_bit,boolean,,,0,1,,,,,FALSE,TRUE,,,,
HP2 condensing temperature,condensingTemperature,hp2,cic-modbus,cic-controller,1,1,interface_heatpump_2,282,,,FALSE,,,FALSE,,2,2131,,convert_temp,double,,,-30,100,,,,,FALSE,TRUE,,,,
HP2 evaporating temperature,evaporatingTemperature,hp2,cic-modbus,cic-controller,1,1,interface_heatpump_2,283,,,FALSE,,,FALSE,,2,2132,,convert_temp,double,,,-30,100,,,,,FALSE,TRUE,,,,
HP2 inlet water temperature,temperatureWaterIn,hp2,cic-modbus,cic-controller,1,1,interface_heatpump_2,284,,,FALSE,,,FALSE,,2,2133,,convert_temp,double,,,-30,100,,,,,TRUE,TRUE,,TRUE,,
HP2 outlet water temperature,temperatureWaterOut,hp2,cic-modbus,cic-controller,1,1,interface_heatpump_2,285,,,FALSE,,,FALSE,,2,2134,,convert_temp,double,,,-30,100,,,,,TRUE,TRUE,,TRUE,,
HP2 circulating pump duty cycle,circulatingPumpDutyCycle,hp2,cic-modbus,cic-controller,1,1,interface_heatpump_2,286,,,FALSE,,,FALSE,,2,2137,,convert_amps,double,,,0,1000,,,,,TRUE,TRUE,,,,
HP2 bottom plate heater enable,bottomPlateHeaterEnable,hp2,cic-modbus,cic-controller,1,1,interface_heatpump_2,287,,,FALSE,,,FALSE,,2,2108,2,extract_bit,boolean,,,0,1,,,,,TRUE,TRUE,,,,
HP2 compressor crankcase heater enable,compressorCrankcaseHeaterEnable,hp2,cic-modbus,cic-controller,1,1,interface_heatpump_2,288,,,FALSE,,,FALSE,,2,2108,3,extract_bit,boolean,,,0,1,,,,,TRUE,TRUE,,,,
HP2 PCB firmware version,pcbFirmwareVersion,hp2,cic-modbus,,1,1,,289,,,FALSE,,,FALSE,,2,2122,,firmware_ver,string,,,,,,,,,TRUE,TRUE,,,,
HP2 main control board item number,mainControlBoardItemNumber,hp2,cic-modbus,,1,1,,290,,,FALSE,,,FALSE,,2,2127,,,uint16,,,,,,,,,TRUE,TRUE,,,,
HP2 flow rate,flowRate,hp2,cic-modbus,cic-controller,1,1,interface_heatpump_2,291,,,FALSE,,,FALSE,,2,2138,,convert_flow,double,,,0,2000,,,,,FALSE,TRUE,,,,Unit=lit/hour
Water supply temperature,waterSupplyTemperature,flowMeter,cic-temperature-python,cic-controller,1,1,interface_flowsensor,30,,,FALSE,,,FALSE,,,,,,double,,,-30,100,,,,,TRUE,TRUE,,TRUE,,
Water supply flow,flowRate,flowMeter,cic-flow,cic-controller,1,1,interface_flowsensor,31,,,FALSE,,,FALSE,,,,,,double,,,0,3000,,,,,TRUE,TRUE,,FALSE,,
Domestic Hot Water (DHW) temperature,,,cic-temperature-python,,1,1,,32,,,FALSE,,,FALSE,,,,,,double,,,-30,100,,,,,TRUE,FALSE,,,,
QC supervisory control mode,supervisoryControlMode,qc,cic-controller,,1,1,interface_redis,400,,,FALSE,,,FALSE,,,,,,uint16,,,0,120,0,,,,TRUE,TRUE,TRUE,TRUE,,
QC watchdog state,watchdogState,qc,cic-controller,,1,1,interface_redis,401,,,FALSE,,,FALSE,,,,,,uint16,,,0,20,0,,,,TRUE,TRUE,,,,
QC watchdog subcode,watchdogSubcode,qc,cic-controller,,1,1,interface_redis,402,,,FALSE,,,FALSE,,,,,,uint16,,,0,20,0,,,,TRUE,TRUE,,,,
QC control commissioning action,controlCommissioningAction,qc,cic-controller,,1,1,interface_redis,403,,,FALSE,,,FALSE,,,,,,uint16,,,0,20,0,,,,FALSE,TRUE,,,,
QC control action,controlAction,qc,cic-controller,,1,1,interface_redis,404,,,FALSE,,,FALSE,,,,,,uint16,,,0,20,0,,,,TRUE,TRUE,,,,
QC CV power output,cvPowerOutput,qc,cic-controller,,1,1,interface_redis,405,,,FALSE,,,FALSE,,,,,,double,,,0,30000,0,,,,TRUE,TRUE,,,,
QC CV energy counter,cvEnergyCounter,qc,cic-controller,,1,1,interface_redis,406,,,FALSE,,,TRUE,,,,,,int32,,,0,2147483647,,,,,TRUE,TRUE,TRUE,,,
QC house power consumed,housePowerConsumed,qc,cic-controller,,1,1,interface_redis,407,,,FALSE,,,FALSE,,,,,,double,,,0,30000,0,,,,TRUE,TRUE,,,,
QC house energy counter,houseEnergyCounter,qc,cic-controller,,1,1,interface_redis,408,,,FALSE,,,TRUE,,,,,,int32,,,-2147483647,2147483647,,,,,TRUE,TRUE,TRUE,,,
QC estimated power demand,estimatedPowerDemand,qc,cic-controller,,1,1,interface_redis,409,,,FALSE,,,FALSE,,,,,,double,,,-30000,30000,0,,,,TRUE,TRUE,,,,
QC estimated power demand feedforward,estimatedPowerDemandFeedforward,qc,cic-controller,,1,1,interface_redis,410,,,FALSE,,,FALSE,,,,,,double,,,-30000,30000,0,,,,TRUE,TRUE,,,,
QC estimated power demand feedback,estimatedPowerDemandFeedback,qc,cic-controller,,1,1,interface_redis,411,,,FALSE,,,FALSE,,,,,,double,,,-30000,30000,0,,,,TRUE,TRUE,,,,
QC HP1 power input,powerInput,hp1,cic-controller,,1,1,interface_redis,412,,,FALSE,,,FALSE,,,,,,double,,,0,2500,0,,,,TRUE,TRUE,,TRUE,,
QC HP1 electrical heating energy counter,electricalEnergyCounter,hp1,cic-controller,,1,1,interface_redis,413,,,FALSE,,,TRUE,,,,,,int32,,,0,2147483647,,,,,TRUE,TRUE,TRUE,,,
QC HP1 power output,power,hp1,cic-controller,,1,1,interface_redis,414,,,FALSE,,,FALSE,,,,,,double,,,0,10000,0,,,,TRUE,TRUE,,TRUE,,
QC HP1 expected maximum power,ratedPower,hp1,cic-controller,,1,1,interface_redis,415,,,FALSE,,,FALSE,,,,,,double,,,0,10000,0,,,,TRUE,TRUE,,,,
QC HP1 thermal heating energy counter,thermalEnergyCounter,hp1,cic-controller,,1,1,interface_redis,416,,,FALSE,,,TRUE,,,,,,int32,,,-2147483647,2147483647,,,,,TRUE,TRUE,TRUE,,,
QC HP1 set compressor frequency,compressorFrequencyDemand,hp1,cic-controller,,1,1,interface_redis,417,,,FALSE,,,FALSE,,,,,,double,,,0,90,0,,,,TRUE,TRUE,,,,
QC HP1 minimum compressor frequency,minimumCompressorFrequency,hp1,cic-controller,,1,1,interface_redis,418,,,FALSE,,,FALSE,,,,,,double,,,0,90,0,,,,FALSE,TRUE,,,,
QC HP1 maximum compressor frequency,maximumCompressorFrequency,hp1,cic-controller,,1,1,interface_redis,419,,,FALSE,,,FALSE,,,,,,double,,,0,90,0,,,,FALSE,TRUE,,,,
QC HP1 set circulating pump level,waterPumpLevel,hp1,cic-controller,,1,1,interface_redis,420,,,FALSE,,,FALSE,,,,,,double,,,0,100,0,,,,TRUE,TRUE,,,,
QC HP1 circulating pump pwm ff,circulatingPumpPwmFeedForward,hp1,cic-controller,,1,1,interface_redis,421,,,FALSE,,,FALSE,,,,,,double,,,0,100,0,,,,FALSE,TRUE,,,,
QC HP1 circulating pump pwm fb,circulatingPumpPwmFeedBack,hp1,cic-controller,,1,1,interface_redis,422,,,FALSE,,,FALSE,,,,,,double,,,0,100,0,,,,FALSE,TRUE,,,,
QC HP1 commissioning expected power,commissioningExpectedPower,hp1,cic-controller,,1,1,interface_redis,423,,,FALSE,,,FALSE,,,,,,double,,,0,10000,0,,,,FALSE,TRUE,,,,
QC minimum COP,minimumCOP,qc,cic-controller,,1,1,interface_redis,424,,,FALSE,,,FALSE,,,,,,double,,,0,10,0,,,,TRUE,TRUE,,,,
QC controller identifier,controllerIdentifier,qc,cic-controller,,1,1,interface_redis,425,,,FALSE,,,FALSE,,,,,,uint16,,,0,16,0,,,,TRUE,TRUE,TRUE,,,"0 - undefined, 1 - RO1, 2 - RN1, 3 - WO1, 4 - WN1, 5 - RO2, 6 - RN2, 7 - WO2, 8 - WN2"
QC HP1 silent mode status,silentModeStatus,hp1,cic-controller,,1,1,interface_redis,426,,,FALSE,,,FALSE,,,,,,boolean,,,0,1,0,,,,TRUE,TRUE,,TRUE,,"0 - Off, 1 - On"
QC HP1 limited by COP,limitedByCop,hp1,cic-controller,,1,1,interface_redis,427,,,FALSE,,,FALSE,,,,,,boolean,,,0,1,0,,,,TRUE,TRUE,,TRUE,,A boolean value indicating if HP1 is not being used because its expected COP is below the calculated minimum COP.
QC HP1 watchdog code,watchdogCode,hp1,cic-controller,,1,1,interface_redis,428,,,FALSE,,,FALSE,,,,,,uint16,,,0,65535,0,,,,TRUE,TRUE,,,,HP1 watchdog status
QC system watchdog code,systemWatchdogCode,qc,cic-controller,,1,1,interface_redis,429,,,FALSE,,,FALSE,,,,,,uint16,,,0,65535,0,,,,TRUE,TRUE,,,,Overall watchdog status
QC HP1 inlet temperature filtered,inletTemperatureFiltered,hp1,cic-controller,,1,1,interface_redis,430,,,FALSE,,,FALSE,,,,,,double,,,-30,100,0,,,,FALSE,TRUE,,,,
QC HP1 outlet temperature filtered,outletTemperatureFiltered,hp1,cic-controller,,1,1,interface_redis,431,,,FALSE,,,FALSE,,,,,,double,,,-30,100,0,,,,FALSE,TRUE,,,,
QC HP1 ambient temperature filtered,ambientTemperatureFiltered,hp1,cic-controller,,1,1,interface_redis,432,,,FALSE,,,FALSE,,,,,,double,,,-30,100,0,,,,FALSE,TRUE,,,,
QC supply temperature filtered,supplyTemperatureFiltered,qc,cic-controller,,1,1,interface_redis,433,,,FALSE,,,FALSE,,,,,,double,,,-30,100,0,,,,FALSE,TRUE,,,,
QC flow rate filtered,flowRateFiltered,qc,cic-controller,,1,1,interface_redis,434,,,FALSE,,,FALSE,,,,,,double,,,0,3000,0,,,,FALSE,TRUE,,TRUE,,Unit=lit/hr
QC sticky pump protection enable,stickyPumpProtectionEnabled,qc,cic-controller,,1,1,interface_redis,435,,,FALSE,,,FALSE,,,,,,boolean,,,0,1,0,,,,TRUE,TRUE,,TRUE,,"0 - disabled, 1 - enabled"
QC HP1 thermal counters degraded flag,thermalCounterDegradedFlag,hp1,cic-controller,,1,1,interface_redis,436,,,FALSE,,,FALSE,,,,,,boolean,,,0,1,0,,,,TRUE,TRUE,,FALSE,,"This flag indicates when the HP1 thermal counter are degraded (e.g., due to HP being disconnected)"
QC HP1 electrical counters degraded flag,electricalCounterDegradedFlag,hp1,cic-controller,,1,1,interface_redis,437,,,FALSE,,,FALSE,,,,,,boolean,,,0,1,0,,,,TRUE,TRUE,,FALSE,,"This flag indicates when the HP1 electricalcounter are degraded (e.g., due to HP being disconnected)"
QC CV counter degraded flag,cvCounterDegradedFlag,qc,cic-controller,,1,1,interface_redis,438,,,FALSE,,,FALSE,,,,,,boolean,,,0,1,0,,,,TRUE,TRUE,,FALSE,,"This flag indicates when the boiler energy counter is degraded (e.g., due to HP being disconnected)"
QC house counter degraded flag,houseCounterDegradedFlag,qc,cic-controller,,1,1,interface_redis,439,,,FALSE,,,FALSE,,,,,,boolean,,,0,1,0,,,,TRUE,TRUE,,FALSE,,"This flag indicates when the house energy counter is degraded (e.g., due to HP1 being disconnected)"
QC HP1 has flow sensor,hasFlowSensor,hp1,cic-controller,,1,1,interface_redis,440,,,FALSE,,,FALSE,,,,,,boolean,,,0,1,0,,,,FALSE,FALSE,,FALSE,,This flag indicates when HP1 has an integrated flow meter
QC HP1 flow sensor degraded,flowSensorDegraded,hp1,cic-controller,,1,1,interface_redis,441,,,FALSE,,,FALSE,,,,,,boolean,,,0,1,0,,,,FALSE,FALSE,,FALSE,,This flag indicates when the integrated flow meter in HP1 is degraded
QC fused flow sensor degraded,fusedFlowSensorDegraded,qc,cic-controller,,1,1,interface_redis,442,,,FALSE,,,FALSE,,,,,,boolean,,,0,1,0,,,,FALSE,TRUE,,FALSE,,This flag indicates when the fused flow meter is degraded
QC HP1 circulating pump model error,circulatingPumpModelError,hp1,cic-controller,,1,1,interface_redis,443,,,FALSE,,,FALSE,,,,,,double,,,-1000000000,1000000000,0,,,,FALSE,TRUE,,FALSE,,This signal indicates the difference between the predicted pump flow rate and the measured pump flow rate
QC HP2 power input,powerInput,hp2,cic-controller,,1,1,interface_redis_8kw,450,,,FALSE,,,FALSE,,,,,,double,,,0,2500,0,,,,TRUE,TRUE,,TRUE,,
QC HP2 electrical heating energy counter,electricalEnergyCounter,hp2,cic-controller,,1,1,interface_redis_8kw,451,,,FALSE,,,TRUE,,,,,,int32,,,0,2147483647,,,,,TRUE,TRUE,TRUE,,,
QC HP2 power output,power,hp2,cic-controller,,1,1,interface_redis_8kw,452,,,FALSE,,,FALSE,,,,,,double,,,0,10000,0,,,,TRUE,TRUE,,TRUE,,
QC HP2 expected maximum power,ratedPower,hp2,cic-controller,,1,1,interface_redis_8kw,453,,,FALSE,,,FALSE,,,,,,double,,,0,10000,0,,,,TRUE,TRUE,,,,
QC HP2 thermal heating energy counter,thermalEnergyCounter,hp2,cic-controller,,1,1,interface_redis_8kw,454,,,FALSE,,,TRUE,,,,,,int32,,,-2147483647,2147483647,,,,,TRUE,TRUE,TRUE,,,
QC HP2 set compressor frequency,compressorFrequencyDemand,hp2,cic-controller,,1,1,interface_redis_8kw,455,,,FALSE,,,FALSE,,,,,,double,,,0,90,0,,,,TRUE,TRUE,,,,
QC HP2 minimum compressor frequency,minimumCompressorFrequency,hp2,cic-controller,,1,1,interface_redis_8kw,456,,,FALSE,,,FALSE,,,,,,double,,,0,90,0,,,,FALSE,TRUE,,,,
QC HP2 maximum compressor frequency,maximumCompressorFrequency,hp2,cic-controller,,1,1,interface_redis_8kw,457,,,FALSE,,,FALSE,,,,,,double,,,0,90,0,,,,FALSE,TRUE,,,,
QC HP2 set circulating pump level,waterPumpLevel,hp2,cic-controller,,1,1,interface_redis_8kw,458,,,FALSE,,,FALSE,,,,,,double,,,0,100,0,,,,TRUE,TRUE,,,,
QC HP2 circulating pump pwm ff,circulatingPumpPwmFeedForward,hp2,cic-controller,,1,1,interface_redis_8kw,459,,,FALSE,,,FALSE,,,,,,double,,,0,100,0,,,,FALSE,TRUE,,,,
QC HP2 circulating pump pwm fb,circulatingPumpPwmFeedBack,hp2,cic-controller,,1,1,interface_redis_8kw,460,,,FALSE,,,FALSE,,,,,,double,,,0,100,0,,,,FALSE,TRUE,,,,
QC HP2 commissioning expected power,commissioningExpectedPower,hp2,cic-controller,,1,1,interface_redis_8kw,461,,,FALSE,,,FALSE,,,,,,double,,,0,10000,0,,,,FALSE,TRUE,,,,
QC HP2 silent mode status,silentModeStatus,hp2,cic-controller,,1,1,interface_redis_8kw,462,,,FALSE,,,FALSE,,,,,,boolean,,,0,1,0,,,,TRUE,TRUE,,TRUE,,"0 - Off, 1 - On"
QC HP2 limited by COP,limitedByCop,hp2,cic-controller,,1,1,interface_redis_8kw,463,,,FALSE,,,FALSE,,,,,,boolean,,,0,1,0,,,,TRUE,TRUE,,TRUE,,A boolean value indicating if HP1 is not being used because its expected COP is below the calculated minimum COP.
QC HP2 watchdog code,watchdogCode,hp2,cic-controller,,1,1,interface_redis_8kw,464,,,FALSE,,,FALSE,,,,,,uint16,,,0,65535,0,,,,TRUE,TRUE,,,,HP2 watchdog status
QC HP2 inlet temperature filtered,inletTemperatureFiltered,hp2,cic-controller,,1,1,interface_redis_8kw,465,,,FALSE,,,FALSE,,,,,,double,,,-30,100,0,,,,FALSE,TRUE,,,,
QC HP2 outlet temperature filtered,outletTemperatureFiltered,hp2,cic-controller,,1,1,interface_redis_8kw,466,,,FALSE,,,FALSE,,,,,,double,,,-30,100,0,,,,FALSE,TRUE,,,,
QC HP2 ambient temperature filtered,ambientTemperatureFiltered,hp2,cic-controller,,1,1,interface_redis_8kw,467,,,FALSE,,,FALSE,,,,,,double,,,-30,100,0,,,,FALSE,TRUE,,,,
QC use both heatpumps,useBothHeatPumps,qc,cic-controller,,1,1,interface_redis_8kw,468,,,FALSE,,,FALSE,,,,,,boolean,,,0,1,0,,,,FALSE,TRUE,,,,"0 - False, 1 - True"
QC HP2 thermal counter degraded flag,thermalCounterDegradedFlag,hp2,cic-controller,,1,1,interface_redis_8kw,469,,,FALSE,,,FALSE,,,,,,boolean,,,0,1,0,,,,TRUE,TRUE,,FALSE,,"This flag indicates when the HP2 thermal counter is degraded (e.g., due to HP being disconnected)"
QC HP2 electrical counter degraded flag,electricalCounterDegradedFlag,hp2,cic-controller,,1,1,interface_redis_8kw,470,,,FALSE,,,FALSE,,,,,,boolean,,,0,1,0,,,,TRUE,TRUE,,FALSE,,"This flag indicates when the HP2 electrical counter is degraded (e.g., due to HP being disconnected)"
QC HP2 has flow sensor,hasFlowSensor,hp2,cic-controller,,1,1,interface_redis_8kw,471,,,FALSE,,,FALSE,,,,,,boolean,,,0,1,0,,,,FALSE,FALSE,,FALSE,,This flag indicates when HP2 has an integrated flow meter
QC HP2 flow sensor degraded,flowSensorDegraded,hp2,cic-controller,,1,1,interface_redis_8kw,472,,,FALSE,,,FALSE,,,,,,boolean,,,0,1,0,,,,FALSE,FALSE,,FALSE,,This flag indicates when the integrated flow meter in HP2 is degraded
QC HP2 circulating pump model error,circulatingPumpModelError,hp2,cic-controller,,1,1,interface_redis_8kw,473,,,FALSE,,,FALSE,,,,,,double,,,-1000000000,1000000000,0,,,,FALSE,TRUE,,FALSE,,This signal indicates the difference between the predicted pump flow rate and the measured pump flow rate
OT FT CH enable,otFtChEnabled,thermostat,cic-thermostat-opentherm,cic-controller,1,1,interface_thermostat,900,,,FALSE,,,FALSE,,,,,,boolean,,,0,1,,,,,,TRUE,,TRUE,,
OT FT DHW enable,otFtDhwEnabled,thermostat,cic-thermostat-opentherm,cic-controller,1,1,interface_thermostat,901,,,FALSE,,,FALSE,,,,,,boolean,,,0,1,,,,,,TRUE,,TRUE,,
OT FT cooling enable,otFtCoolingEnabled,thermostat,cic-thermostat-opentherm,,1,1,,902,,,FALSE,,,FALSE,,,,,,boolean,,,0,1,,,,,,TRUE,,TRUE,,
OT FT OTC active,otFtOtcActive,thermostat,cic-thermostat-opentherm,,1,1,,903,,,FALSE,,,FALSE,,,,,,boolean,,,0,1,,,,,,TRUE,,,,
OT FT CH2 enable,otFtCh2Enabled,thermostat,cic-thermostat-opentherm,,1,1,,904,,,FALSE,,,FALSE,,,,,,boolean,,,0,1,,,,,,TRUE,,,,
OT FT summer mode enabe,otFtSummerModeEnabled,thermostat,cic-thermostat-opentherm,,1,1,,905,,,FALSE,,,FALSE,,,,,,boolean,,,0,1,,,,,,TRUE,,,,
OT FT DHW Blocked,otFtDhwBlocked,thermostat,cic-thermostat-opentherm,,1,1,,906,,,FALSE,,,FALSE,,,,,,boolean,,,0,1,,,,,,TRUE,,,,
OT FT control setpoint,otFtControlSetpoint,thermostat,cic-thermostat-opentherm,cic-controller,1,1,interface_thermostat,907,,,FALSE,,,FALSE,,,,,,double,,,0,100,,,,,,TRUE,,TRUE,,
OT FT Max rel modulation level setting,otFtMaxRelModulationLevelSetting,thermostat,cic-thermostat-opentherm,cic-controller,1,1,interface_thermostat,908,,,FALSE,,,FALSE,,,,,,double,,,0,100,,,,,,TRUE,,,,
OT FT Opentherm version master,otFtOpenthermVersionMaster,thermostat,cic-thermostat-opentherm,,1,1,,909,,,FALSE,,,FALSE,,,,,,double,,,0,127,,,,,,TRUE,,,,
OT FT Room setpoint,otFtRoomSetpoint,thermostat,cic-thermostat-opentherm,cic-controller,1,1,interface_thermostat,910,,,FALSE,,,FALSE,,,,,,double,,,0,127,,,,,,TRUE,,TRUE,,
OT FT Room setpoint CH2,otFtRoomSetpointCh2,thermostat,cic-thermostat-opentherm,,1,1,,911,,,FALSE,,,FALSE,,,,,,double,,,0,127,,,,,,TRUE,,,,
OT FT Room temperature,otFtRoomTemperature,thermostat,cic-thermostat-opentherm,cic-controller,1,1,interface_thermostat,912,,,FALSE,,,FALSE,,,,,,double,,,0,127,,,,,,TRUE,,TRUE,,
OT_FT MemberID of master,otFtMemberIDOfMaster,thermostat,cic-thermostat-opentherm,,1,1,,913,,,FALSE,,,FALSE,,,,,,uint16,,,0,255,,,,,,TRUE,,,,
OT_FT Master product type number,otFtMasterProductTypeNumber,thermostat,cic-thermostat-opentherm,,1,1,,914,,,FALSE,,,FALSE,,,,,,uint16,,,0,255,,,,,,TRUE,,,,
OT_FT Master product version number,otFtMasterProductVersionNumber,thermostat,cic-thermostat-opentherm,,1,1,,915,,,FALSE,,,FALSE,,,,,,uint16,,,0,255,,,,,,TRUE,,,,
OT FT smart power implemented,otFtSmartPowerImplemented,thermostat,cic-thermostat-opentherm,,1,1,,916,,,FALSE,,,FALSE,,,,,,boolean,,,0,1,,,,,,TRUE,,,,
OT FB fault indication,otFbFaultIndication,boiler,cic-boiler-opentherm,,1,1,,950,,,FALSE,,,FALSE,,,,,,boolean,,,0,1,,,,,,TRUE,,,,
OT FB CH mode active,otFbChModeActive,boiler,cic-boiler-opentherm,cic-controller,1,1,interface_boiler,951,,,FALSE,,,FALSE,,,,,,boolean,,,0,1,,,,,,TRUE,,TRUE,,
OT FB DHW active,otFbDhwActive,boiler,cic-boiler-opentherm,cic-controller,1,1,interface_boiler,952,,,FALSE,,,FALSE,,,,,,boolean,,,0,1,,,,,,TRUE,,TRUE,,
OT FB flame on,otFbFlameOn,boiler,cic-boiler-opentherm,cic-controller,1,1,interface_boiler,953,,,FALSE,,,FALSE,,,,,,boolean,,,0,1,,,,,,TRUE,,TRUE,,
OT FB cooling status,otFbCoolingStatus,boiler,cic-boiler-opentherm,,1,1,,954,,,FALSE,,,FALSE,,,,,,boolean,,,0,1,,,,,,TRUE,,,,
OT FB CH2 mode,otFbCh2Mode,boiler,cic-boiler-opentherm,,1,1,,955,,,FALSE,,,FALSE,,,,,,boolean,,,0,1,,,,,,TRUE,,,,
OT FB diagnostic service event,otFbDiagnosticServiceEvent,boiler,cic-boiler-opentherm,,1,1,,956,,,FALSE,,,FALSE,,,,,,boolean,,,0,1,,,,,,TRUE,,,,
OT FB Supply inlet temperature,otFbSupplyInletTemperature,boiler,cic-boiler-opentherm,cic-controller,1,1,interface_boiler,957,,,FALSE,,,FALSE,,,,,,double,,,-40,127,,,,,,TRUE,,TRUE,,
OT FB Supply outlet temperature,otFbSupplyOutletTemperature,boiler,cic-boiler-opentherm,cic-controller,1,1,interface_boiler,958,,,FALSE,,,FALSE,,,,,,double,,,-40,127,,,,,,TRUE,,TRUE,,
"OT FB fault flags ",otFbFaultFlags,boiler,cic-boiler-opentherm,cic-controller,1,1,interface_boiler,959,,,FALSE,,,FALSE,,,,,,uint16,,,,,,,,,,TRUE,,,,
OT FB OEM error code,otFbOemErrorCode,boiler,cic-boiler-opentherm,cic-controller,1,1,interface_boiler,960,,,FALSE,,,FALSE,,,,,,uint16,,,0,256,,,,,,TRUE,,,,
OT FB water pressure,otFbWaterPressure,boiler,cic-boiler-opentherm,cic-controller,1,1,interface_boiler,961,,,FALSE,,,FALSE,,,,,,double,,,0,5,,,,,,TRUE,,,,
OT FB max CH water setpoint,otFbMaxChWaterSetpoint,boiler,cic-boiler-opentherm,cic-controller,1,1,interface_boiler,962,,,FALSE,,,FALSE,,,,,,double,,,-40,127,,,,,,TRUE,,,,
OT TT fault indication,otTtFaultIndication,thermostat,,,1,1,,1000,,,FALSE,,,FALSE,,,,,,boolean,,,0,1,0,,,,,TRUE,,,,
OT TT CH mode active,otTtChModeActive,thermostat,cic-controller,,1,1,interface_thermostat,1001,,,FALSE,,,FALSE,,,,,,boolean,,,0,1,0,,,,,TRUE,,,,
OT TT DHW active,otTtDhwActive,thermostat,cic-controller,,1,1,interface_thermostat,1002,,,FALSE,,,FALSE,,,,,,boolean,,,0,1,0,,,,,TRUE,,,,
OT TT flame on,otTtFlameOn,thermostat,cic-controller,,1,1,interface_thermostat,1003,,,FALSE,,,FALSE,,,,,,boolean,,,0,1,0,,,,,TRUE,,,,
OT TT cooling status,otTtCoolingStatus,thermostat,,,1,1,,1004,,,FALSE,,,FALSE,,,,,,boolean,,,0,1,0,,,,,TRUE,,,,
OT TT CH2 mode,otTtCh2Mode,thermostat,,,1,1,,1005,,,FALSE,,,FALSE,,,,,,boolean,,,0,1,0,,,,,TRUE,,,,
OT TT diagnostic service event,otTtDiagnosticServiceEvent,thermostat,,,1,1,,1006,,,FALSE,,,FALSE,,,,,,boolean,,,0,1,,,,,,TRUE,,,,
OT TT boiler water temp,otTtBoilerWaterTemp,thermostat,cic-controller,,1,1,interface_thermostat,1007,,,FALSE,,,FALSE,,,,,,double,,,-40,127,,,,,,TRUE,,,,
OT TT Outside temperature,otTtOutsideTemperature,,cic-controller,,1,1,interface_thermostat,1008,,,FALSE,,,FALSE,,,,,,double,,,-40,127,,,,,,FALSE,,,,
OT TT Return water temperature,otTtReturnWaterTemperature,,cic-controller,,1,1,interface_thermostat,1009,,,FALSE,,,FALSE,,,,,,double,,,-40,127,,,,,,FALSE,,,,
OT TT max CH setpoint enable,otTtMaxChSetpointEnable,,,,1,1,,1010,,,FALSE,,,FALSE,,,,,,boolean,,,0,1,,,,,,FALSE,,,,
OT TT max CH water setpoint,otTtMaxChWaterSetpoint,,cic-controller,,1,1,interface_thermostat,1011,,,FALSE,,,FALSE,,,,,,double,,,0,127,,,,,,FALSE,,,,
OT TT remote override room setpoint,otTtRemoteOverrideRoomSetpoint,,,"cic-thermostat-opentherm",1,1,,1012,,,FALSE,,,FALSE,,,,,,double,,,0,30,0,,,,,TRUE,,,,
OT TT remote override operating mode Heating Circuit 1,otTtRemoteOverrideOperatingModeHc1,,,"cic-thermostat-opentherm",1,1,,1013,,,FALSE,,,FALSE,,,,,,uint16,,,0,6,0,,,,,TRUE,,,,
OT TT remote override operating mode Heating Circuit 2,otTtRemoteOverrideOperatingModeHc2,,,"cic-thermostat-opentherm",1,1,,1014,,,FALSE,,,FALSE,,,,,,uint16,,,0,6,0,,,,,TRUE,,,,
OT TT remote override operating mode DHW,otTtRemoteOverrideOperatingModeDhw,,,"cic-thermostat-opentherm",1,1,,1015,,,FALSE,,,FALSE,,,,,,uint16,,,0,6,0,,,,,TRUE,,,,
OT TT remote override operating mode DHW manual push,otTtRemoteOverrideOperatingModeDhwManualPush,,,"cic-thermostat-opentherm",1,1,,1016,,,FALSE,,,FALSE,,,,,,boolean,,,0,1,0,,,,,TRUE,,,,
OT TT remote override room setpoint function manual change priority,otTtRemoteOverrideRoomSetpointFunctionManualChangePriority,"cic-thermostat-opentherm",,,1,1,,1017,,,FALSE,,,FALSE,,,,,,boolean,,,0,1,0,,,,,TRUE,,,,
OT TT remote override room setpoint function program change priority,otTtRemoteOverrideRoomSetpointFunctionProgramChangePriority,"cic-thermostat-opentherm",,,1,1,,1018,,,FALSE,,,FALSE,,,,,,boolean,,,0,1,0,,,,,TRUE,,,,
OT TB CH enable,otTbCH,boiler,cic-controller,,1,1,interface_boiler,1050,,,FALSE,,,FALSE,,,,,,boolean,,,0,1,0,,,,,TRUE,,TRUE,,
OT TB DHW enable,otTbDHW,boiler,cic-controller,,1,1,interface_boiler,1051,,,FALSE,,,FALSE,,,,,,boolean,,,0,1,0,,,,,TRUE,,,,
OT TB cooling enable,otTbCoolingEnable,boiler,,,1,1,,1052,,,FALSE,,,FALSE,,,,,,boolean,,,0,1,0,,,,,TRUE,,,,
OT TB OTC active,otTbOtcActive,boiler,,,1,1,,1053,,,FALSE,,,FALSE,,,,,,boolean,,,0,1,0,,,,,TRUE,,,,
OT TB CH2 enable,otTbCh2Enable,boiler,,,1,1,,1054,,,FALSE,,,FALSE,,,,,,boolean,,,0,1,0,,,,,TRUE,,,,
OT TB summer mode enabe,otTbSummerModeEnable,boiler,,,1,1,,1055,,,FALSE,,,FALSE,,,,,,boolean,,,0,1,0,,,,,TRUE,,,,
OT TB DHW Blocked,otTbDhwBlocked,boiler,,,1,1,,1056,,,FALSE,,,FALSE,,,,,,boolean,,,0,1,0,,,,,TRUE,,,,
"OT TB Control Setpoint ",otTbControlSetpoint,boiler,cic-controller,,1,1,interface_boiler,1057,,,FALSE,,,FALSE,,,,,,double,,,0,100,,,,,,TRUE,,,,
TB Turn on off boiler on,oTtbTurnOnOffBoilerOn,boiler,cic-controller,,1,1,interface_boiler,1058,,,FALSE,,,FALSE,,,,,,boolean,,,0,1,0,,,,,TRUE,,TRUE,,
OT TB Room setpoint,otTbRoomSetpoint,,cic-controller,,1,1,interface_boiler,1059,,,FALSE,,,FALSE,,,,,,double,,,-40,127,,,,,,FALSE,,,,
OT TB Room temperature,otTbRoomTemperature,,cic-controller,,1,1,interface_boiler,1060,,,FALSE,,,FALSE,,,,,,double,,,-40,127,,,,,,FALSE,,,,
Button pressed unixtime,buttonPushedAt,system,cic-button,,1,1,,1100,,,FALSE,,,FALSE,,,,,,uint64,,,0,,,,,,,TRUE,,,,
CC boiler type,ccBoilerType,system,cic-cloud-connector,cic-controller,1,1,interface_redis,1200,,,TRUE,,,FALSE,,,,,,uint16,openthermConnectionType,,0,2,0,,,,FALSE,TRUE,,,,"0 - undefined, 1 - Opentherm, 2 - On/off"
CC thermostat type,ccThermostatType,system,cic-cloud-connector,cic-controller,1,1,interface_redis,1201,,,TRUE,,,FALSE,,,,,,uint16,thermostatType,,0,2,0,,,,FALSE,TRUE,,,,"0 - undefined, 1 - Opentherm with room temp, 2 - without room temp"
CC thermostat identification status,ccThermostatIdentificationStatus,system,cic-cloud-connector,,1,1,,1202,,,TRUE,,,FALSE,,,,,,boolean,,,0,1,0,,,,FALSE,TRUE,,,,
CC boiler identification status,ccBoilerIdentificationStatus,system,cic-cloud-connector,,1,1,,1203,,,TRUE,,,FALSE,,,,,,boolean,,,0,1,0,,,,FALSE,TRUE,,,,
CC HP identification status,ccHpIdentificationStatus,system,cic-cloud-connector,,1,1,,1204,,,TRUE,,,FALSE,,,,,,boolean,,,0,1,0,,,,FALSE,TRUE,,,,
CC flow temperature sensor identification status,ccFlowTemperatureSensorIdentificationStatus,system,cic-cloud-connector,,1,1,,1205,,,TRUE,,,FALSE,,,,,,boolean,,,0,1,0,,,,FALSE,TRUE,,,,
CC HP TestLevel,ccHpTestLevel,system,cic-cloud-connector,cic-controller,1,1,interface_redis,1206,,,FALSE,,,FALSE,,,,,,uint16,heatpumpTestLevel,,0,2,0,,,,FALSE,TRUE,,,,"0: none, 1: medium, 2: maximum"
CC Commissioning Mode,ccCommissioningMode,system,cic-cloud-connector,cic-controller,1,1,interface_redis,1207,,,FALSE,1800,,FALSE,,,,,,uint16,commissioningMode,,0,6,0,,,,FALSE,TRUE,,,,"commissioningModes = {0: ""none"", 1: ""identification"", 2: ""deaeration"", 3: ""flow_rate"", 4: ""heat_pump"", 5: ""boiler""}"
CC commissioning done,ccCommissioningDone,system,cic-cloud-connector,cic-controller,1,1,interface_redis,1208,,,TRUE,,,FALSE,,,,,,boolean,,,0,1,0,,,,TRUE,TRUE,,,,"0: not commissioned, 1: commissioned"
CC number of heatpumps,ccNumberOfHeatPumps,system,cic-controller-manager,"cic-controller,cic-modbus",1,1,interface_redis,1209,,,TRUE,,,TRUE,,,,,,uint16,,,0,2,0,,,,FALSE,TRUE,,,,"1: 1 heatpump, 2: 2 heatpumps"
CIC update state,menderUpdateState,system,mender state script,cic-cloud-connector,,,,1210,,,FALSE,,,FALSE,,,,,,uint16,menderUpdateState,,0,4,,,,,TRUE,TRUE,,,,0= unknown; 1=idle; 2=sync; 3=download; 4=install
CC use pricing to limit heatpump,ccUsePricingToLimitHeatPump,system,cic-controller-manager,cic-controller,1,1,interface_redis,1211,,,TRUE,,,FALSE,,,,,,boolean,,,0,1,1,,,,FALSE,TRUE,,,,"0: False, 1: True"
HP1 set ODU1 revision,odu1RevisionId,system,cic-controller-manager,,1,1,,1212,,,TRUE,,,TRUE,/opt/quatt.io/config/cic_settings_only_save.json,,,,,uint16,,,,,,,,,FALSE,TRUE,,,,ODU 1 revision ID selected during commissioning
HP2 set ODU2 revision,odu2RevisionId,system,cic-controller-manager,,1,1,,1213,,,TRUE,,,TRUE,/opt/quatt.io/config/cic_settings_only_save.json,,,,,uint16,,,,,,,,,FALSE,TRUE,,,,ODU 2 revision ID selected during commissioning
Rated heat loss house,ratedHeatLossHouse,system,cic-controller-manager,cic-controller,1,1,interface_redis,1350,,,TRUE,,,FALSE,,,,,,uint16,,,0,20000,8000,,,,FALSE,TRUE,,,,
Temperature cutoff heating,temperatureCutoffHeating,system,cic-controller-manager,cic-controller,1,1,interface_redis,1351,,,TRUE,,,FALSE,,,,,,double,,,0,20,16,,,,FALSE,TRUE,,,,
Electricity day tariff,electricityDayTariff,system,cic-controller-manager,cic-controller,1,1,interface_redis,1352,,,TRUE,,,FALSE,,,,,,double,,,0,9,0.4,,,,FALSE,TRUE,,,,
Electricity night tariff,electricityNightTariff,system,cic-controller-manager,cic-controller,1,1,interface_redis,1353,,,TRUE,,,FALSE,,,,,,double,,,0,9,0.4,,,,FALSE,TRUE,,,,
Gas tariff,gasTariff,system,cic-controller-manager,cic-controller,1,1,interface_redis,1354,,,TRUE,,,FALSE,,,,,,double,,,0,9,1.45,,,,FALSE,TRUE,,,,
Electricity night time start hour,,,cic-controller-manager,cic-controller,1,1,interface_redis,1355,,,TRUE,,,FALSE,,,,,,uint16,,,0,23,23,,,,FALSE,FALSE,,,,
Electricity night time end hour,,,cic-controller-manager,cic-controller,1,1,interface_redis,1356,,,TRUE,,,FALSE,,,,,,uint16,,,0,23,7,,,,FALSE,FALSE,,,,
Electricity night time start min,,,cic-controller-manager,cic-controller,1,1,interface_redis,1357,,,TRUE,,,FALSE,,,,,,uint16,,,0,59,0,,,,FALSE,FALSE,,,,
Electricity night time end min,,,cic-controller-manager,cic-controller,1,1,interface_redis,1358,,,TRUE,,,FALSE,,,,,,uint16,,,0,59,0,,,,FALSE,FALSE,,,,
Silent mode setting,ccSilentModeSetting,system,cic-controller-manager,,1,1,,1359,,,TRUE,,,FALSE,,,,,,uint16,,,0,2,0,,,,FALSE,TRUE,,,,"0: never, 1: night, 2: always"
Timezone setting,timezoneSetting,,cic-controller-manager,,1,1,,1360,,,TRUE,,,FALSE,,,,,,?,,,,,,,,,FALSE,FALSE,,,,
silentModeInt,silentModeInt,qc,cic-controller-manager,cic-controller,1,1,interface_redis,1361,,,TRUE,,,FALSE,,,,,,uint16,,,0,2,0,,,,TRUE,TRUE,,,,"0: never, 1: night, 2: always"
Day max Hz,dayMaxHz,qc,cic-controller-manager,cic-controller,1,1,interface_redis,1362,,,TRUE,,,FALSE,,,,,,uint16,,,0,90,90,,,,TRUE,TRUE,,,,Maximum frequency (in Hz) at which the compressor runs in the day
Night max Hz,nightMaxHz,qc,cic-controller-manager,cic-controller,1,1,interface_redis,1363,,,TRUE,,,FALSE,,,,,,uint16,,,0,90,90,,,,TRUE,TRUE,,,,Maximum frequency (in Hz) at which the compressor runs at night
Live view until,,,cic-cloud-command,cic-cloud-metrics,1,1,,2000,,,FALSE,,,FALSE,,,,,,uint64,,,0,,,,,,FALSE,FALSE,,,,After this timestamp we switch back to the default publish interval for statistics
Local feed stats,,,cic-cloud-metrics,cic-cloud-webserver,1,1,,2001,,,FALSE,,,FALSE,,,,,,string,,,,,,,,,FALSE,FALSE,,,,Local json statistics for the webserver
is_HP1_connected,hp1Connected,system,cic-modbus,cic-controller,1,1,interface_redis,9000,,,FALSE,,,FALSE,,,,,,boolean,,,0,1,0,,,,FALSE,TRUE,TRUE,,,
is_HP2_connected,hp2Connected,system,cic-modbus,cic-controller,1,1,interface_redis,9001,,,FALSE,,,FALSE,,,,,,boolean,,,0,1,0,,,,FALSE,TRUE,TRUE,,,
is_thermostat_connected,isThermostatConnected,system,cic-thermostat-opentherm,cic-controller,1,1,interface_redis,9002,,,FALSE,60,,FALSE,,,,,,boolean,,,0,1,0,,,,FALSE,TRUE,,,,
is_boiler_connected,isBoilerConnected,system,cic-boiler-opentherm,cic-controller,1,1,interface_redis,9003,,,FALSE,10,,FALSE,,,,,,boolean,,,0,1,0,,,,FALSE,TRUE,,,,
Thermostat type,thermostatType,system,cic-thermostat-opentherm,cic-controller,1,1,interface_redis,9004,,,FALSE,,,FALSE,,,,,,uint16,thermostatType,,0,2,0,,,,FALSE,TRUE,,,,
is_temperature_sensor_connected,isTemperatureSensorConnected,system,cic-temperature-python,cic-controller,1,1,interface_redis,9005,,,FALSE,10,,FALSE,,,,,,boolean,,,0,1,0,,,,FALSE,TRUE,,,,
is_modbus_driver_alive,isModbusDriverAlive,system,cic-modbus,cic-controller,1,1,interface_redis,9006,,,FALSE,,,FALSE,,,,,,boolean,,,0,1,0,,,,FALSE,TRUE,,,,
is_OT_thermostat_driver_alive,isOtThermostatDriverAlive,system,cic-thermostat-opentherm,cic-controller,1,1,interface_redis,9007,,,FALSE,,,FALSE,,,,,,boolean,,,0,1,0,,,,FALSE,TRUE,,,,
is_controller_alive,isControllerAlive,system,systemd,cic-controller,1,1,interface_redis,9008,,,FALSE,,,FALSE,,,,,,boolean,,,0,1,0,,,,FALSE,TRUE,,,,
is_cloud_connector_alive,isCloudConnectorAlive,system,cic-cloud-connector,cic-controller,1,1,interface_redis,9009,,,FALSE,,,FALSE,,,,,,boolean,,,0,1,0,,,,FALSE,TRUE,,,,
is_flowmeter_app_alive,isFlowmeterAppAlive,system,cic-flow,,1,1,,9010,,,FALSE,,,FALSE,,,,,,boolean,,,0,1,0,,,,FALSE,TRUE,,,,
is_temperature_sensor_app_alive,isTemperatureSensorAppAlive,system,cic-temperature-python,,1,1,,9011,,,FALSE,,,FALSE,,,,,,boolean,,,0,1,0,,,,FALSE,TRUE,,,,
cic_temp_too_high_during_x_time,cicTempTooHighDuringXTime,system,cic-resource-monitoring,,1,1,,9013,,,FALSE,,,FALSE,,,,,,boolean,,,0,1,0,,,,FALSE,TRUE,,,,"0 = temperature is too high; 1 = temperature is OK; null = problem with cic-egde-logic (has not been written yest) "
cic_memory_too_high,cicMemoryTooHigh,system,cic-resource-monitoring,,1,1,,9014,,,FALSE,,,FALSE,,,,,,boolean,,,0,1,0,,,,FALSE,TRUE,,,,"0 = memory usage is too high; 1 = memory usage is OK; null = problem with cic-egde-logic (has not been written yest) "
cic_disk_space_usage_too_high,cicDiskSpaceUsageTooHigh,system,cic-resource-monitoring,,1,1,,9015,,,FALSE,,,FALSE,,,,,,boolean,,,0,1,0,,,,FALSE,TRUE,,,,"0 = disk space usage is too high; 1 = disk space usage is OK; null = problem with cic-egde-logic (has not been written yest) "
cic_load_avg15_too_high,cicLoadAvg15TooHigh,system,cic-resource-monitoring,,1,1,,9016,,,FALSE,,,FALSE,,,,,,boolean,,,0,1,0,,,,FALSE,TRUE,,,,"0 = load average over 15 minutes is too high; 1 = load average over 15 minutes is OK; null = problem with cic-egde-logic (has not been written yest) "
is_wired_etherent_connected,isEthernetConnected,system,cic-resource-monitoring,,1,1,,9017,,,FALSE,,,FALSE,,,,,,boolean,,,0,1,0,,,,FALSE,TRUE,TRUE,,,"0 = not connected; 1 =connected; null = problem with cic-egde-logic (has not been written yest) "
is_wifi_connected,isWifiConnected,system,cic-network-monitoring,,1,1,,9018,,,FALSE,,,FALSE,,,,,,boolean,,,0,1,0,,,,FALSE,TRUE,TRUE,,,"0 = not connected; 1 =connected; null = problem with cic-egde-logic (has not been written yest) "
is_lte_connected,isLteConnected,system,cic-network-monitoring,,1,1,,9019,,,FALSE,,,FALSE,,,,,,boolean,,,0,1,0,,,,FALSE,TRUE,TRUE,,,"0 = not connected; 1 =connected; null = problem with cic-egde-logic (has not been written yest) "
has_wired_etherent_could_conn,isEthernetReachable,system,cic-network-monitoring,,1,1,,9020,,,FALSE,,,FALSE,,,,,,boolean,,,0,1,0,,,,FALSE,TRUE,TRUE,,,"0 = no cloud connectivity; 1 =cloud connectivity; null = problem with cic-egde-logic (has not been written yest) "
has_wifi_could_conn,isWifiReachable,system,cic-network-monitoring,,1,1,,9021,,,FALSE,,,FALSE,,,,,,boolean,,,0,1,0,,,,FALSE,TRUE,TRUE,,,"0 = no cloud connectivity; 1 =cloud connectivity; null = problem with cic-egde-logic (has not been written yest) "
has_lte_could_conn,isLteReachable,system,cic-network-monitoring,,1,1,,9022,,,FALSE,,,FALSE,,,,,,boolean,,,0,1,0,,,,FALSE,TRUE,TRUE,,,"0 = no cloud connectivity; 1 =cloud connectivity; null = problem with cic-egde-logic (has not been written yest) "
wired_etherent_ping,ethernetPing,system,cic-network-monitoring,,1,1,,9023,,,FALSE,,,FALSE,,,,,,double,,,0,,,,,,FALSE,TRUE,,,,"result time of ping, if ping fails -1"
wired_wifi_ping,wifiPing,system,cic-network-monitoring,,1,1,,9024,,,FALSE,,,FALSE,,,,,,double,,,0,,,,,,FALSE,TRUE,,,,"result time of ping, if ping fails -1"
wired_lte_ping,ltePing,system,cic-network-monitoring,,1,1,,9025,,,FALSE,,,FALSE,,,,,,double,,,0,,,,,,FALSE,TRUE,,,,"result time of ping, if ping fails -1"
is_flowmeter_connected,isFlowmeterConnected,system,cic-flow,,1,1,,9026,,,FALSE,10,,FALSE,,,,,,boolean,,,0,1,0,,,,FALSE,TRUE,,,,
is_OT_boiler_driver_alive,isOtBoilerDriverAlive,system,cic-boiler-opentherm,,1,1,,9027,,,FALSE,,,FALSE,,,,,,boolean,,,0,1,0,,,,FALSE,TRUE,,,,
is_on_off_boiler_driver_alive,isOnOffBoilerDriverAlive,system,cic-boiler-on-off,,1,1,,9028,,,FALSE,,,FALSE,,,,,,boolean,,,0,1,0,,,,FALSE,TRUE,,,,
is button driver alive,isButtonDriverAlive,system,cic-button,,1,1,,9029,,,FALSE,,,FALSE,,,,,,boolean,,,0,1,0,,,,FALSE,TRUE,,,,
provisioning_status,provisioningStatus,system,cic-provisioning,,1,1,,9031,,,FALSE,,,FALSE,,,,,,uint16,,,0,7,,,,,FALSE,TRUE,,,,
is_led_alive,isLedAlive,system,cic-led,,1,1,,9032,,,FALSE,,,FALSE,,,,,,boolean,,,0,1,0,,,,FALSE,TRUE,,,,
"LTE status ",lteProvisioningstatus,system,cic-provisioning,,1,1,,9033,,,FALSE,,,FALSE,,,,,,uint16,,,0,7,0,,,,TRUE,TRUE,,,,
is_hardware_watchdog_alive,isHardwareWatchdogAlive,system,hw-watchdog,,1,1,,9034,,,FALSE,,,FALSE,,,,,,boolean,,,0,1,0,,,,TRUE,TRUE,,,,"Currently not set by the application, as we want the service to start early without Redis dependency"
wifi_connected_ssid,wifiConnectedSsid,system,cic-network-monitoring,,1,1,,9035,,,FALSE,,,FALSE,,,,,,string,,,,,,,,,TRUE,TRUE,,,,Name of the SSID that the cic is connected to
is_first_boot,isFirstBoot,system,cic-provisioning,,1,1,,9036,,,FALSE,,,FALSE,,,,,,boolean,,,0,1,0,,,,FALSE,FALSE,,,,"0 = it is not first boot; 1 =it is first boot; null = problem with cic-egde-logic (has not been written yest) "
is_provisioning,isProvisioning,system,cic-provisioning,,1,1,,9037,,,FALSE,,,FALSE,,,,,,boolean,,,0,1,0,,,,FALSE,FALSE,,,,"0 = the cic is not in provisioning mode; 1 =the cic is in provisioning mode; null = problem with cic-egde-logic (has not been written yest) "
is_cic_cloud_proxy_alive,isCicCloudProxyAlive,system,cic-cloud-proxy,,1,1,,9040,,,FALSE,,,FALSE,,,,,,boolean,,,0,1,0,,,,FALSE,TRUE,,,,
is_cic_cloud_metrics_alive,isCicCloudMetricsAlive,system,cic-cloud-metrics,,1,1,,9041,,,FALSE,,,FALSE,,,,,,boolean,,,0,1,0,,,,FALSE,TRUE,,,,
is_cic_cloud_webserver_alive,isCicCloudWebserverAlive,system,cic-cloud-webserver,,1,1,,9042,,,FALSE,,,FALSE,,,,,,boolean,,,0,1,0,,,,FALSE,TRUE,,,,
is_cic_cloud_command_alive,isCicCloudCommandAlive,system,cic-cloud-command,,1,1,,9043,,,FALSE,,,FALSE,,,,,,boolean,,,0,1,0,,,,FALSE,TRUE,,,,
is_cic_cloud_logger_alive,isCicCloudLoggerAlive,system,cic-cloud-logger,,1,1,,9044,,,FALSE,,,FALSE,,,,,,boolean,,,0,1,0,,,,FALSE,TRUE,,,,
is_cic_provisioning_alive,isCicProvisioningAlive,system,cic-provisioning,,1,1,,9045,,,FALSE,,,FALSE,,,,,,boolean,,,0,1,0,,,,FALSE,TRUE,,,,
is_cic_network_monitoring_alive,isCicNetworkMonitoringAlive,system,cic-network-monitoring,,1,1,,9046,,,FALSE,,,FALSE,,,,,,boolean,,,0,1,0,,,,FALSE,TRUE,,,,
is_cic_resource_monitoring_alive,isCicResourceMonitoringAlive,system,cic-resource-monitoring,,1,1,,9047,,,FALSE,,,FALSE,,,,,,boolean,,,0,1,0,,,,FALSE,TRUE,,,,
is_cic_network_command_handler_alive,isCicNetworkCommandHandlerAlive,system,cic-network-command-handler,,1,1,,9048,,,FALSE,,,FALSE,,,,,,boolean,,,0,1,0,,,,FALSE,TRUE,,,,
is_cic_controller_manager_alive,isCicControllerManagerAlive,system,cic-controller-manager,,1,1,,9049,,,FALSE,,,FALSE,,,,,,boolean,,,0,1,0,,,,FALSE,TRUE,,,,
is_mender_client_alive,isMenderClientAlive,system,mender-client,,1,1,,9050,,,FALSE,,,FALSE,,,,,,boolean,,,0,1,0,,,,FALSE,TRUE,,,,
is_mender_connect_alive,isMenderConnectAlive,system,mender-connect,,1,1,,9051,,,FALSE,,,FALSE,,,,,,boolean,,,0,1,0,,,,FALSE,TRUE,,,,
Turning thermostat debug messages on/off,,system,cic-thermostat-opentherm,,1,1,,0,OT_thermostat_debug,,FALSE,,,FALSE,,,,,,boolean,,,0,1,0,,,,FALSE,FALSE,,,,
Turning OT boiler debug messages on/off,,system,cic-boiler-opentherm,,1,1,,0,OT_boiler_debug,,FALSE,,,FALSE,,,,,,boolean,,,0,1,0,,,,FALSE,FALSE,,,,
Upload external meter data,,system,cic-controller-manager,cic-cloud-metrics,1,1,,,uploadExternalMeterData,,TRUE,,,TRUE,/opt/quatt.io/config/cic_settings_only_save.json,,,,,boolean,,,,,0,,,,,,,,,Whether to upload external meter data yes/no (only some CICs have external meters)
modbus electricty meter 1 voltage reading,externalElectricityMeter1Voltage,externalMeters,cic-modbus-external-meters,,1,1,,30000,,,FALSE,,,FALSE,,,,,,double,,,,,,,,,FALSE,FALSE,,,,
modbus electricty meter 1 current reading,externalElectricityMeter1Current,externalMeters,cic-modbus-external-meters,,1,1,,30001,,,FALSE,,,FALSE,,,,,,double,,,,,,,,,FALSE,FALSE,,,,
modbus electricty meter 1 power factor reading,externalElectricityMeter1PowerFactor,externalMeters,cic-modbus-external-meters,,1,1,,30002,,,FALSE,,,FALSE,,,,,,double,,,,,,,,,FALSE,FALSE,,,,
modbus electricty meter 1 imported actual energy reading,externalElectricityMeter1Energy,externalMeters,cic-modbus-external-meters,,1,1,,30003,,,FALSE,,,FALSE,,,,,,double,,,,,,,,,FALSE,FALSE,,,,
modbus electricty meter 1 power,externalElectricityMeter1Power,externalMeters,cic-modbus-external-meters,,1,1,,30004,,,FALSE,,,FALSE,,,,,,double,,,,,,,,,FALSE,FALSE,,,,
modbus electricty meter 2 voltage reading,externalElectricityMeter2Voltage,externalMeters,cic-modbus-external-meters,,1,1,,30005,,,FALSE,,,FALSE,,,,,,double,,,,,,,,,FALSE,FALSE,,,,
modbus electricty meter 2 current reading,externalElectricityMeter2Current,externalMeters,cic-modbus-external-meters,,1,1,,30006,,,FALSE,,,FALSE,,,,,,double,,,,,,,,,FALSE,FALSE,,,,
modbus electricty meter 2 power factor reading,externalElectricityMeter2PowerFactor,externalMeters,cic-modbus-external-meters,,1,1,,30007,,,FALSE,,,FALSE,,,,,,double,,,,,,,,,FALSE,FALSE,,,,
modbus electricty meter 2 imported actual energy reading,externalElectricityMeter2Energy,externalMeters,cic-modbus-external-meters,,1,1,,30008,,,FALSE,,,FALSE,,,,,,double,,,,,,,,,FALSE,FALSE,,,,
modbus electricty meter 2 power,externalElectricityMeter2Power,externalMeters,cic-modbus-external-meters,,1,1,,30009,,,FALSE,,,FALSE,,,,,,double,,,,,,,,,FALSE,FALSE,,,,
modbus energy meter 1 energy reading,externalEnergyMeter1Energy,externalMeters,cic-modbus-external-meters,,1,1,,30010,,,FALSE,,,FALSE,,,,,,double,,,,,,,,,FALSE,FALSE,,,,
modbus energy meter 1 power reading,externalEnergyMeter1Power,externalMeters,cic-modbus-external-meters,,1,1,,30011,,,FALSE,,,FALSE,,,,,,double,,,,,,,,,FALSE,FALSE,,,,
modbus energy meter 1 flow reading,externalEnergyMeter1Flow,externalMeters,cic-modbus-external-meters,,1,1,,30012,,,FALSE,,,FALSE,,,,,,double,,,,,,,,,FALSE,FALSE,,,,
modbus energy meter 1 forward temperature reading,externalEnergyMeter1Supply,externalMeters,cic-modbus-external-meters,,1,1,,30013,,,FALSE,,,FALSE,,,,,,double,,,,,,,,,FALSE,FALSE,,,,
modbus energy meter 1  return termperature reading,externalEnergyMeter1Return,externalMeters,cic-modbus-external-meters,,1,1,,30014,,,FALSE,,,FALSE,,,,,,double,,,,,,,,,FALSE,FALSE,,,,
modbus energy meter 1 energy tarrif 1 reading,externalEnergyMeter1EnergyCooling,externalMeters,cic-modbus-external-meters,,1,1,,30015,,,FALSE,,,FALSE,,,,,,double,,,,,,,,,FALSE,FALSE,,,,
modbus energy meter 2 energy reading,externalEnergyMeter2Energy,externalMeters,cic-modbus-external-meters,,1,1,,30020,,,FALSE,,,FALSE,,,,,,double,,,,,,,,,FALSE,FALSE,,,,
modbus energy meter 2 power reading,externalEnergyMeter2Power,externalMeters,cic-modbus-external-meters,,1,1,,30021,,,FALSE,,,FALSE,,,,,,double,,,,,,,,,FALSE,FALSE,,,,
modbus energy meter 2 flow reading,externalEnergyMeter2Flow,externalMeters,cic-modbus-external-meters,,1,1,,30022,,,FALSE,,,FALSE,,,,,,double,,,,,,,,,FALSE,FALSE,,,,
modbus energy meter 2 forward temperature reading,externalEnergyMeter2Supply,externalMeters,cic-modbus-external-meters,,1,1,,30023,,,FALSE,,,FALSE,,,,,,double,,,,,,,,,FALSE,FALSE,,,,
modbus energy meter 2 return temperature reading,externalEnergyMeter2Return,externalMeters,cic-modbus-external-meters,,1,1,,30024,,,FALSE,,,FALSE,,,,,,double,,,,,,,,,FALSE,FALSE,,,,
modbus energy meter 2 energy tarrif 1 reading,externalEnergyMeter2EnergyCooling,externalMeters,cic-modbus-external-meters,,1,1,,30025,,,FALSE,,,FALSE,,,,,,double,,,,,,,,,FALSE,FALSE,,,,
modbus external flow meter 1,externalFlowMeter1,externalMeters,cic-modbus-external-meters,,1,1,,30030,,,FALSE,,,FALSE,,,,,,double,,,,,,,,,FALSE,FALSE,,,,
sys/uptime,uptime,system,,,,,,,sys/uptime,,,,,,,,,,,uint64,,,,,,,,,,TRUE,,,,
sys/loadavg1,loadavg1,system,,,,,,,sys/loadavg1,,,,,,,,,,,double,,,,,,,,,,TRUE,,,,
sys/loadavg5,loadavg5,system,,,,,,,sys/loadavg5,,,,,,,,,,,double,,,,,,,,,,TRUE,,,,
sys/loadavg15,loadavg15,system,,,,,,,sys/loadavg15,,,,,,,,,,,double,,,,,,,,,,TRUE,,,,
sys/cpuUsage,cpuUsage,system,,,,,,,sys/cpuUsage,,,,,,,,,,,double,,,,,,,,,,TRUE,,,,
sys/cpuTemp,cpuTemp,system,,,,,,,sys/cpuTemp,,,,,,,,,,,double,,,,,,,,,,TRUE,,,,
sys/memTotal,memTotal,system,,,,,,,sys/memTotal,,,,,,,,,,,uint64,,,,,,,,,,TRUE,,,,
sys/memAvailable,memAvailable,system,,,,,,,sys/memAvailable,,,,,,,,,,,uint64,,,,,,,,,,TRUE,,,,
sys/memFree,memFree,system,,,,,,,sys/memFree,,,,,,,,,,,uint64,,,,,,,,,,TRUE,,,,
sys/diskTotal,diskTotal,system,,,,,,,sys/diskTotal,,,,,,,,,,,uint64,,,,,,,,,,TRUE,,,,
sys/diskFree,diskFree,system,,,,,,,sys/diskFree,,,,,,,,,,,uint64,,,,,,,,,,TRUE,,,,
sys/diskUsed,diskUsed,system,,,,,,,sys/diskUsed,,,,,,,,,,,uint64,,,,,,,,,,TRUE,,,,
deviceInfo/serNo,serNo,system,,,,,,,deviceInfo/serNo,,,,,,,,,,,string,,,,,,,,,,TRUE,,,,
deviceInfo/hostName,hostName,system,,,,,,,deviceInfo/hostName,,,,,,,,,,,string,,,,,,,,,,TRUE,,TRUE,,
deviceInfo/os,os,system,,,,,,,deviceInfo/os,,,,,,,,,,,string,,,,,,,,,,TRUE,,,,
deviceInfo/release,release,system,,,,,,,deviceInfo/release,,,,,,,,,,,string,,,,,,,,,,TRUE,,,,
deviceInfo/endianness,endianness,system,,,,,,,deviceInfo/endianness,,,,,,,,,,,string,,,,,,,,,,TRUE,,,,
deviceInfo/architecture,architecture,system,,,,,,,deviceInfo/architecture,,,,,,,,,,,string,,,,,,,,,,TRUE,,,,
deviceInfo/quattBuild,quattBuild,system,,,,,,,deviceInfo/quattBuild,,,,,,,,,,,string,,,,,,,,,,TRUE,TRUE,,,
deviceInfo/buildType,buildType,system,cic-provisioning,cic-cloud-proxy,,,,,deviceInfo/buildType,,,,,TRUE,/etc/os-release,,,,,string,,,,,,,,,,FALSE,FALSE,,,development/production/production_factory
deviceInfo/mac,mac,system,,,,,,,deviceInfo/mac,,,,,,,,,,,string,,,,,,,,,,TRUE,,,,
deviceInfo/quattId,quattId,system,,,,,,,deviceInfo/quattId,,,,,,,,,,,string,,,,,,,,,,TRUE,,,,
deviceInfo/hwid,hwid,system,,,,,,,deviceInfo/hwid,,,,,,,,,,,string,,,,,,,,,,TRUE,,,,
deviceInfo/modemVer,modemVer,system,,,,,,,deviceInfo/modemVer,,,,,,,,,,,string,,,,,,,,,,TRUE,,,,
deviceInfo/modemImei,modemImei,system,,,,,,,deviceInfo/modemImei,,,,,,,,,,,string,,,,,,,,,,TRUE,,,,
deviceInfo/modemImsi,modemImsi,system,,,,,,,deviceInfo/modemImsi,,,,,,,,,,,string,,,,,,,,,,TRUE,,,,
deviceInfo/iccid,iccid,system,,,,,,,deviceInfo/iccid,,,,,,,,,,,string,,,,,,,,,,TRUE,,,,
deviceInfo/menderId,menderId,system,,,,,,,deviceInfo/menderId,,,,,,,,,,,string,,,,,,,,,,TRUE,,,,
isMqttConnected,isMqttConnected,system,cic-cloud-connector,,,,,,sys/isMqttConnected,,,,,,,,,,,boolean,,,,,,,,,,TRUE,,,,
isLTE,isLTE,system,cic-cloud-connector,,,,,,sys/isLTEMode,,,,,,,,,,,boolean,,,,,,,,,,TRUE,TRUE,,,IS the cloud connector in LTE mode?
